(G-CODE GENERATED BY FLATCAM v8.994 - www.flatcam.org - Version Date: 2020/11/7)

(Name: Alignment Drills_cnc)
(Type: G-code from Geometry)
(Units: MM)

(Created on Monday, 04 September 2023 at 20:19)


G01 F20.00

M5
G00 Z5.0000
T1
G00 X0.0000 Y0.0000                
M6
(MSG, Change to Tool Dia = 3.0000 ||| Total drills for tool T1 = 4)
M0
G00 Z5.0000

G01 F20.00
M03
G00 X61.8912 Y4.9889
G01 Z-3.0000
G01 Z0
G00 Z2.0000
G00 X61.8912 Y56.0523
G01 Z-3.0000
G01 Z0
G00 Z2.0000
G00 X-3.4397 Y55.7921
G01 Z-3.0000
G01 Z0
G00 Z2.0000
G00 X-3.4397 Y5.2491
G01 Z-3.0000
G01 Z0
G00 Z2.0000
M05
G00 Z8.00


