(G-CODE GENERATED BY FLATCAM v8.994 - www.flatcam.org - Version Date: 2020/11/7)

(Name: preprototiposecadosv3-05f6-b_cu.gbr_iso_combined_cnc)
(Type: G-code from Geometry)
(Units: MM)

(Created on Tuesday, 05 September 2023 at 18:49)

(This preprocessor is the default preprocessor used by FlatCAM.)
(It is made to work with MACH3 compatible motion controllers.)

(TOOL DIAMETER: 0.1 mm)
(Feedrate_XY: 60.0 mm/min)
(Feedrate_Z: 60.0 mm/min)
(Feedrate rapids 1500.0 mm/min)

(Z_Cut: 0.0 mm)
(Z_Move: 2.0 mm)
(Z Start: None mm)
(Z End: 8.0 mm)
(X,Y End: None mm)
(Steps per circle: 64)
(Preprocessor Geometry: default)

(X range:    1.2017 ...   58.5017  mm)
(Y range:    0.8706 ...   60.1706  mm)

(Spindle Speed: 0.0 RPM)
G21
G90
G94

G01 F60.00

M5
G00 Z15.0000
G00 X0.0000 Y0.0000
T1
M6    
(MSG, Change to Tool Dia = 0.1000)
M0
G00 Z15.0000

M03
G01 F60.00
G00 X3.1360 Y4.7773
G01 F60.00
G01 Z0.0000
G01 F60.00
G01 X3.5617 Y4.0393
G01 X4.1624 Y3.4386
G01 X4.8987 Y3.0128
G01 X5.7163 Y2.7936
G01 X6.5701 Y2.7936
G01 X7.3878 Y3.0128
G01 X8.1240 Y3.4386
G01 X8.7247 Y4.0393
G01 X9.1505 Y4.7773
G01 X9.3697 Y5.5932
G01 X9.3697 Y6.4470
G01 X9.1501 Y7.2643
G01 X8.7247 Y8.0009
G01 X8.1240 Y8.6016
G01 X7.3874 Y9.0270
G01 X6.5701 Y9.2456
G01 X5.7163 Y9.2456
G01 X4.8990 Y9.0270
G01 X4.1624 Y8.6016
G01 X3.5617 Y8.0009
G01 X3.1363 Y7.2643
G01 X2.9177 Y6.4470
G01 X2.9177 Y5.5932
G01 X3.1360 Y4.7773
G00 Z2.0000
G00 X3.2934 Y6.0174
G01 F60.00
G01 Z0.0000
G01 F60.00
G01 X3.3070 Y5.7406
G01 X3.3481 Y5.4639
G01 X3.4160 Y5.1926
G01 X3.5103 Y4.9293
G01 X3.6298 Y4.6764
G01 X3.7736 Y4.4365
G01 X3.9402 Y4.2119
G01 X4.1281 Y4.0046
G01 X4.3353 Y3.8168
G01 X4.5599 Y3.6502
G01 X4.7998 Y3.5064
G01 X5.0527 Y3.3868
G01 X5.3160 Y3.2926
G01 X5.5873 Y3.2247
G01 X5.8640 Y3.1836
G01 X6.1433 Y3.1699
G01 X6.4227 Y3.1836
G01 X6.6993 Y3.2247
G01 X6.9706 Y3.2926
G01 X7.2340 Y3.3868
G01 X7.4868 Y3.5064
G01 X7.7267 Y3.6502
G01 X7.9513 Y3.8168
G01 X8.1586 Y4.0046
G01 X8.3464 Y4.2119
G01 X8.5130 Y4.4365
G01 X8.6568 Y4.6764
G01 X8.7764 Y4.9293
G01 X8.8706 Y5.1926
G01 X8.9386 Y5.4639
G01 X8.9796 Y5.7406
G01 X8.9933 Y6.0199
G01 X8.9796 Y6.2993
G01 X8.9386 Y6.5759
G01 X8.8706 Y6.8472
G01 X8.7764 Y7.1106
G01 X8.6568 Y7.3634
G01 X8.5130 Y7.6033
G01 X8.3464 Y7.8279
G01 X8.1586 Y8.0352
G01 X7.9513 Y8.2230
G01 X7.7267 Y8.3896
G01 X7.4868 Y8.5334
G01 X7.2340 Y8.6530
G01 X6.9706 Y8.7472
G01 X6.6993 Y8.8151
G01 X6.4227 Y8.8562
G01 X6.1433 Y8.8699
G01 X5.8640 Y8.8562
G01 X5.5873 Y8.8151
G01 X5.3160 Y8.7472
G01 X5.0527 Y8.6530
G01 X4.7998 Y8.5334
G01 X4.5599 Y8.3896
G01 X4.3353 Y8.2230
G01 X4.1281 Y8.0352
G01 X3.9402 Y7.8279
G01 X3.7736 Y7.6033
G01 X3.6298 Y7.3634
G01 X3.5103 Y7.1106
G01 X3.4160 Y6.8472
G01 X3.3481 Y6.5759
G01 X3.3070 Y6.2993
G01 X3.2934 Y6.0174
G00 Z2.0000
G00 X11.7257 Y26.6830
G01 F60.00
G01 Z0.0000
G01 F60.00
G01 X11.7187 Y26.5778
G01 X11.7187 Y26.5632
G01 X11.7169 Y26.5303
G01 X11.7185 Y26.5176
G01 X11.7187 Y26.5126
G01 X11.7187 Y20.2762
G01 X11.7349 Y20.1178
G01 X11.7360 Y20.1128
G01 X11.7749 Y19.9706
G01 X11.8355 Y19.8371
G01 X11.9182 Y19.7144
G01 X12.0161 Y19.6051
G01 X12.1320 Y19.5130
G01 X12.2606 Y19.4383
G01 X12.3960 Y19.3876
G01 X12.5395 Y19.3553
G01 X12.6908 Y19.3477
G01 X12.8361 Y19.3620
G01 X12.9784 Y19.3980
G01 X13.1147 Y19.4581
G01 X13.2357 Y19.5338
G01 X13.3487 Y19.6335
G01 X13.4429 Y19.7468
G01 X13.5229 Y19.8780
G01 X13.5748 Y20.0055
G01 X13.5949 Y20.0964
G01 X13.6077 Y20.1496
G01 X13.6081 Y20.1549
G01 X13.6090 Y20.1598
G01 X13.6273 Y20.2385
G01 X13.6313 Y20.2475
G01 X13.6347 Y20.2526
G01 X13.6379 Y20.2564
G01 X13.6452 Y20.2629
G01 X13.6503 Y20.2663
G01 X13.6547 Y20.2684
G01 X13.6605 Y20.2705
G01 X13.6665 Y20.2719
G01 X13.6726 Y20.2726
G01 X13.6787 Y20.2724
G01 X13.6848 Y20.2716
G01 X13.6907 Y20.2700
G01 X13.6964 Y20.2676
G01 X13.7018 Y20.2646
G01 X13.9060 Y20.1030
G01 X14.0346 Y20.0283
G01 X14.1700 Y19.9776
G01 X14.3135 Y19.9453
G01 X14.4644 Y19.9376
G01 X14.6099 Y19.9526
G01 X14.6152 Y19.9539
G01 X14.6208 Y19.9545
G01 X14.7459 Y19.9881
G01 X14.7510 Y19.9901
G01 X14.7557 Y19.9914
G01 X14.8867 Y20.0462
G01 X15.0096 Y20.1237
G01 X15.1228 Y20.2236
G01 X15.2169 Y20.3368
G01 X15.2969 Y20.4680
G01 X15.3488 Y20.5955
G01 X15.3669 Y20.6774
G01 X15.3822 Y20.7415
G01 X15.3927 Y20.8716
G01 X15.3927 Y25.4196
G01 X15.3935 Y25.4282
G01 X15.3952 Y25.4353
G01 X15.3986 Y25.4432
G01 X15.4026 Y25.4494
G01 X15.4074 Y25.4550
G01 X25.5784 Y35.6250
G01 X25.6778 Y35.7492
G01 X25.6843 Y35.7613
G01 X25.7522 Y35.8808
G01 X25.8045 Y36.0218
G01 X25.8330 Y36.1699
G01 X25.8406 Y36.3139
G01 X25.8233 Y36.4547
G01 X25.7855 Y36.5985
G01 X25.7833 Y36.6052
G01 X25.7256 Y36.7338
G01 X25.6479 Y36.8551
G01 X25.5461 Y36.9683
G01 X25.4289 Y37.0640
G01 X25.3737 Y37.0953
G01 X25.3056 Y37.1346
G01 X25.1698 Y37.1906
G01 X25.0704 Y37.2117
G01 X25.0255 Y37.2220
G01 X24.8782 Y37.2315
G01 X24.7337 Y37.2191
G01 X24.5903 Y37.1849
G01 X24.4553 Y37.1283
G01 X24.3296 Y37.0499
G01 X24.3231 Y37.0452
G01 X24.2316 Y36.9678
G01 X23.4092 Y36.1454
G01 X23.4014 Y36.1393
G01 X23.3961 Y36.1364
G01 X23.3915 Y36.1345
G01 X23.3820 Y36.1321
G01 X23.3722 Y36.1317
G01 X23.3649 Y36.1326
G01 X23.3578 Y36.1346
G01 X23.3510 Y36.1376
G01 X23.3438 Y36.1423
G01 X23.3384 Y36.1472
G01 X23.3337 Y36.1529
G01 X23.3294 Y36.1604
G01 X23.3268 Y36.1673
G01 X23.3251 Y36.1757
G01 X23.2950 Y36.4273
G01 X23.2575 Y36.5695
G01 X23.2553 Y36.5762
G01 X23.1976 Y36.7048
G01 X23.1199 Y36.8261
G01 X23.0180 Y36.9394
G01 X22.9010 Y37.0350
G01 X22.8282 Y37.0761
G01 X22.7775 Y37.1057
G01 X22.6417 Y37.1617
G01 X22.4975 Y37.1930
G01 X22.3502 Y37.2025
G01 X22.2057 Y37.1901
G01 X22.0624 Y37.1559
G01 X21.9273 Y37.0993
G01 X21.8016 Y37.0209
G01 X21.7951 Y37.0162
G01 X21.7036 Y36.9388
G01 X11.9804 Y27.2176
G01 X11.9766 Y27.2122
G01 X11.9346 Y27.1602
G01 X11.8924 Y27.1099
G01 X11.8797 Y27.0923
G01 X11.8470 Y27.0356
G01 X11.8174 Y26.9859
G01 X11.8118 Y26.9729
G01 X11.8054 Y26.9610
G01 X11.7843 Y26.9035
G01 X11.7630 Y26.8515
G01 X11.7593 Y26.8372
G01 X11.7538 Y26.8233
G01 X11.7435 Y26.7718
G01 X11.7281 Y26.7022
G01 X11.7257 Y26.6830
G00 Z2.0000
G00 X15.1817 Y39.4272
G01 F60.00
G01 Z0.0000
G01 F60.00
G01 X15.2175 Y39.3853
G01 X15.2452 Y39.3538
G01 X15.2668 Y39.3322
G01 X15.2808 Y39.3164
G01 X15.2941 Y39.3049
G01 X16.2671 Y38.3309
G01 X16.3918 Y38.2312
G01 X16.5229 Y38.1571
G01 X16.6633 Y38.1049
G01 X16.8059 Y38.0773
G01 X16.9551 Y38.0687
G01 X17.0939 Y38.0857
G01 X17.1020 Y38.0873
G01 X17.2453 Y38.1250
G01 X17.3759 Y38.1837
G01 X17.4971 Y38.2614
G01 X17.5184 Y38.2809
G01 X17.6105 Y38.3633
G01 X17.7061 Y38.4804
G01 X17.7374 Y38.5356
G01 X17.7767 Y38.6037
G01 X17.8328 Y38.7396
G01 X17.8642 Y38.8857
G01 X17.8736 Y39.0311
G01 X17.8612 Y39.1756
G01 X17.8270 Y39.3190
G01 X17.7711 Y39.4526
G01 X17.6882 Y39.5850
G01 X17.6099 Y39.6777
G01 X16.8973 Y40.3913
G01 X16.8925 Y40.3968
G01 X16.8886 Y40.4031
G01 X16.8856 Y40.4098
G01 X16.8837 Y40.4169
G01 X16.8827 Y40.4266
G01 X16.8827 Y42.8506
G01 X16.8833 Y42.8579
G01 X16.8852 Y42.8663
G01 X16.8881 Y42.8731
G01 X16.8918 Y42.8794
G01 X16.8974 Y42.8860
G01 X17.8254 Y43.8140
G01 X18.8486 Y44.8362
G01 X18.8627 Y44.8534
G01 X18.8653 Y44.8581
G01 X18.8688 Y44.8630
G01 X18.9234 Y44.9307
G01 X18.9300 Y44.9376
G01 X18.9458 Y44.9591
G01 X18.9843 Y45.0264
G01 X19.0070 Y45.0642
G01 X19.0116 Y45.0752
G01 X19.0173 Y45.0857
G01 X19.0471 Y45.1627
G01 X19.0614 Y45.1984
G01 X19.0628 Y45.2029
G01 X19.0659 Y45.2104
G01 X19.0724 Y45.2298
G01 X19.0776 Y45.2600
G01 X19.0951 Y45.3421
G01 X19.0962 Y45.3583
G01 X19.0991 Y45.3725
G01 X19.1085 Y45.5190
G01 X19.1060 Y45.5384
G01 X19.1057 Y45.5436
G01 X19.1057 Y48.0956
G01 X19.1067 Y48.1054
G01 X19.1091 Y48.1136
G01 X19.1135 Y48.1224
G01 X19.1187 Y48.1292
G01 X19.1231 Y48.1335
G01 X19.1269 Y48.1365
G01 X19.1355 Y48.1413
G01 X19.1400 Y48.1431
G01 X19.1460 Y48.1446
G01 X19.1557 Y48.1456
G01 X23.4977 Y48.1456
G01 X23.5162 Y48.1447
G01 X23.6604 Y48.1571
G01 X23.6762 Y48.1609
G01 X23.6897 Y48.1621
G01 X23.7136 Y48.1691
G01 X23.8031 Y48.1910
G01 X23.8167 Y48.1973
G01 X23.8301 Y48.2021
G01 X23.8351 Y48.2035
G01 X23.8703 Y48.2197
G01 X23.9424 Y48.2500
G01 X23.9542 Y48.2573
G01 X23.9699 Y48.2639
G01 X24.0196 Y48.2976
G01 X24.0646 Y48.3252
G01 X24.0698 Y48.3303
G01 X24.0777 Y48.3369
G01 X24.0909 Y48.3458
G01 X24.0994 Y48.3528
G01 X24.1306 Y48.3801
G01 X24.1664 Y48.4120
G01 X24.1883 Y48.4338
G01 X24.1988 Y48.4427
G01 X24.2124 Y48.4580
G01 X26.7834 Y51.0280
G01 X26.8832 Y51.1527
G01 X26.9572 Y51.2837
G01 X27.0094 Y51.4241
G01 X27.0380 Y51.5729
G01 X27.0456 Y51.7169
G01 X27.0285 Y51.8561
G01 X26.9884 Y52.0079
G01 X26.9306 Y52.1368
G01 X26.8529 Y52.2580
G01 X26.8335 Y52.2793
G01 X26.7511 Y52.3713
G01 X26.6339 Y52.4670
G01 X26.5787 Y52.4983
G01 X26.5106 Y52.5376
G01 X26.3748 Y52.5937
G01 X26.2754 Y52.6147
G01 X26.2305 Y52.6250
G01 X26.0832 Y52.6345
G01 X25.9387 Y52.6221
G01 X25.7953 Y52.5879
G01 X25.6603 Y52.5313
G01 X25.5346 Y52.4529
G01 X25.5281 Y52.4482
G01 X25.4366 Y52.3708
G01 X23.1251 Y50.0602
G01 X23.1205 Y50.0562
G01 X23.1144 Y50.0521
G01 X23.1088 Y50.0494
G01 X23.1030 Y50.0474
G01 X23.0958 Y50.0460
G01 X23.0897 Y50.0456
G01 X18.1547 Y50.0456
G01 X18.1282 Y50.0466
G01 X18.1082 Y50.0447
G01 X18.0922 Y50.0446
G01 X18.0859 Y50.0440
G01 X18.0459 Y50.0380
G01 X17.9871 Y50.0321
G01 X17.9765 Y50.0300
G01 X17.9622 Y50.0263
G01 X17.9486 Y50.0251
G01 X17.9047 Y50.0123
G01 X17.8456 Y49.9964
G01 X17.8257 Y49.9876
G01 X17.8090 Y49.9828
G01 X17.7631 Y49.9594
G01 X17.7069 Y49.9348
G01 X17.6936 Y49.9276
G01 X17.6868 Y49.9229
G01 X17.6780 Y49.9181
G01 X17.6392 Y49.8909
G01 X17.5875 Y49.8588
G01 X17.5793 Y49.8519
G01 X17.5736 Y49.8477
G01 X17.5685 Y49.8432
G01 X17.5543 Y49.8335
G01 X17.5206 Y49.8009
G01 X17.5066 Y49.7880
G01 X17.4759 Y49.7611
G01 X17.4624 Y49.7484
G01 X17.4521 Y49.7355
G01 X17.4463 Y49.7295
G01 X17.4091 Y49.6808
G01 X17.3828 Y49.6490
G01 X17.3792 Y49.6432
G01 X17.3691 Y49.6305
G01 X17.3664 Y49.6259
G01 X17.3603 Y49.6172
G01 X17.3354 Y49.5716
G01 X17.3261 Y49.5570
G01 X17.3060 Y49.5241
G01 X17.3007 Y49.5128
G01 X17.2958 Y49.5049
G01 X17.2934 Y49.4983
G01 X17.2890 Y49.4894
G01 X17.2715 Y49.4399
G01 X17.2497 Y49.3859
G01 X17.2473 Y49.3748
G01 X17.2436 Y49.3612
G01 X17.2388 Y49.3489
G01 X17.2297 Y49.3026
G01 X17.2124 Y49.2247
G01 X17.2115 Y49.2112
G01 X17.2106 Y49.2047
G01 X17.2086 Y49.1440
G01 X17.2057 Y49.1123
G01 X17.2057 Y49.0904
G01 X17.2049 Y49.0745
G01 X17.2057 Y49.0656
G01 X17.2049 Y49.0529
G01 X17.2057 Y49.0436
G01 X17.2057 Y45.9036
G01 X17.2048 Y45.8939
G01 X17.2024 Y45.8856
G01 X17.2004 Y45.8811
G01 X17.1973 Y45.8758
G01 X17.1911 Y45.8683
G01 X15.2771 Y43.9533
G01 X15.2527 Y43.9316
G01 X15.1593 Y43.8194
G01 X15.1525 Y43.8077
G01 X15.1435 Y43.7971
G01 X15.1175 Y43.7518
G01 X15.0818 Y43.6925
G01 X15.0749 Y43.6751
G01 X15.0689 Y43.6648
G01 X15.0521 Y43.6199
G01 X15.0264 Y43.5561
G01 X15.0226 Y43.5412
G01 X15.0170 Y43.5253
G01 X15.0057 Y43.4688
G01 X14.9931 Y43.4134
G01 X14.9913 Y43.3959
G01 X14.9885 Y43.3794
G01 X14.9866 Y43.3327
G01 X14.9827 Y43.2836
G01 X14.9827 Y40.0156
G01 X14.9819 Y40.0002
G01 X14.9942 Y39.8558
G01 X14.9980 Y39.8401
G01 X14.9992 Y39.8266
G01 X15.0062 Y39.8027
G01 X15.0283 Y39.7126
G01 X15.0375 Y39.6914
G01 X15.0401 Y39.6823
G01 X15.0635 Y39.6306
G01 X15.0870 Y39.5743
G01 X15.0933 Y39.5642
G01 X15.1009 Y39.5466
G01 X15.1347 Y39.4967
G01 X15.1623 Y39.4518
G01 X15.1742 Y39.4383
G01 X15.1817 Y39.4272
G00 Z2.0000
G00 X17.3924 Y42.0827
G01 F60.00
G01 Z0.0000
G01 F60.00
G01 X17.3427 Y41.9492
G01 X17.3094 Y41.8036
G01 X17.3027 Y41.6805
G01 X17.3018 Y41.6523
G01 X17.3161 Y41.5072
G01 X17.3522 Y41.3649
G01 X17.4118 Y41.2297
G01 X17.4874 Y41.1085
G01 X17.5877 Y40.9946
G01 X17.7008 Y40.9004
G01 X17.8294 Y40.8223
G01 X17.9599 Y40.7684
G01 X18.0357 Y40.7514
G01 X18.1054 Y40.7351
G01 X18.2357 Y40.7246
G01 X22.9527 Y40.7246
G01 X22.9690 Y40.7237
G01 X22.9864 Y40.7246
G01 X23.0055 Y40.7246
G01 X23.0364 Y40.7275
G01 X23.0450 Y40.7276
G01 X23.1119 Y40.7322
G01 X23.1391 Y40.7379
G01 X23.1544 Y40.7402
G01 X23.1651 Y40.7411
G01 X23.2027 Y40.7514
G01 X23.2337 Y40.7584
G01 X23.2558 Y40.7626
G01 X23.2597 Y40.7639
G01 X23.2891 Y40.7758
G01 X23.3107 Y40.7818
G01 X23.3610 Y40.8046
G01 X23.3955 Y40.8186
G01 X23.4124 Y40.8283
G01 X23.4458 Y40.8432
G01 X23.4518 Y40.8473
G01 X23.4580 Y40.8505
G01 X23.4882 Y40.8706
G01 X23.5193 Y40.8880
G01 X23.5476 Y40.9115
G01 X23.5673 Y40.9244
G01 X23.5935 Y40.9479
G01 X23.6219 Y40.9704
G01 X30.0613 Y47.0779
G01 X30.0670 Y47.0825
G01 X30.0733 Y47.0863
G01 X30.0801 Y47.0891
G01 X30.0872 Y47.0909
G01 X30.0945 Y47.0916
G01 X30.1019 Y47.0912
G01 X30.1091 Y47.0898
G01 X30.1160 Y47.0873
G01 X30.1245 Y47.0825
G01 X30.1311 Y47.0770
G01 X40.8979 Y36.3091
G01 X40.9027 Y36.3033
G01 X40.9065 Y36.2969
G01 X40.9093 Y36.2900
G01 X40.9108 Y36.2840
G01 X40.9125 Y36.2729
G01 X40.9252 Y36.1248
G01 X40.9290 Y36.1091
G01 X40.9302 Y36.0956
G01 X40.9372 Y36.0717
G01 X40.9596 Y35.9801
G01 X40.9621 Y35.9733
G01 X40.9663 Y35.9638
G01 X40.9685 Y35.9568
G01 X40.9878 Y35.9150
G01 X41.0180 Y35.8434
G01 X41.0243 Y35.8332
G01 X41.0319 Y35.8156
G01 X41.0657 Y35.7658
G01 X41.0925 Y35.7223
G01 X41.1053 Y35.7071
G01 X41.1127 Y35.6962
G01 X41.1485 Y35.6543
G01 X41.1762 Y35.6228
G01 X41.1978 Y35.6012
G01 X41.2118 Y35.5854
G01 X41.2251 Y35.5739
G01 X42.7561 Y34.0420
G01 X42.8318 Y33.9817
G01 X42.8596 Y33.9588
G01 X42.8796 Y33.9433
G01 X42.9489 Y33.9048
G01 X42.9862 Y33.8817
G01 X42.9913 Y33.8800
G01 X42.9959 Y33.8779
G01 X43.0106 Y33.8689
G01 X43.0781 Y33.8445
G01 X43.1229 Y33.8266
G01 X43.1484 Y33.8181
G01 X43.2173 Y33.8047
G01 X43.2627 Y33.7943
G01 X43.2801 Y33.7932
G01 X43.2941 Y33.7902
G01 X43.3326 Y33.7875
G01 X43.3543 Y33.7865
G01 X43.3936 Y33.7836
G01 X43.4071 Y33.7836
G01 X43.4400 Y33.7818
G01 X43.4528 Y33.7834
G01 X43.4577 Y33.7836
G01 X45.7562 Y33.7835
G01 X45.7647 Y33.7824
G01 X45.7730 Y33.7797
G01 X45.7806 Y33.7757
G01 X45.7875 Y33.7705
G01 X45.8841 Y33.6729
G01 X45.8894 Y33.6662
G01 X45.8930 Y33.6598
G01 X45.8948 Y33.6553
G01 X45.8965 Y33.6495
G01 X45.8973 Y33.6447
G01 X45.8977 Y33.6386
G01 X45.8977 Y29.3286
G01 X45.8975 Y29.3237
G01 X45.8965 Y29.3176
G01 X45.8934 Y29.3083
G01 X45.8886 Y29.2998
G01 X45.8831 Y29.2932
G01 X41.1740 Y24.5852
G01 X41.0743 Y24.4605
G01 X41.0002 Y24.3295
G01 X40.9480 Y24.1891
G01 X40.9195 Y24.0403
G01 X40.9119 Y23.8973
G01 X40.9289 Y23.7570
G01 X40.9680 Y23.6073
G01 X41.0268 Y23.4765
G01 X41.1041 Y23.3558
G01 X41.2063 Y23.2419
G01 X41.3222 Y23.1469
G01 X41.3787 Y23.1149
G01 X41.4468 Y23.0756
G01 X41.5826 Y23.0196
G01 X41.6821 Y22.9985
G01 X41.7270 Y22.9882
G01 X41.8742 Y22.9787
G01 X42.0187 Y22.9911
G01 X42.1621 Y23.0253
G01 X42.2974 Y23.0820
G01 X42.3224 Y23.0981
G01 X42.4243 Y23.1612
G01 X42.5228 Y23.2444
G01 X47.5254 Y28.2460
G01 X47.5307 Y28.2506
G01 X47.5382 Y28.2588
G01 X47.5625 Y28.2899
G01 X47.6207 Y28.3587
G01 X47.6295 Y28.3729
G01 X47.6373 Y28.3829
G01 X47.6618 Y28.4253
G01 X47.6998 Y28.4886
G01 X47.7049 Y28.5026
G01 X47.7121 Y28.5161
G01 X47.7284 Y28.5593
G01 X47.7551 Y28.6256
G01 X47.7573 Y28.6353
G01 X47.7635 Y28.6515
G01 X47.7749 Y28.7103
G01 X47.7874 Y28.7676
G01 X47.7891 Y28.7845
G01 X47.7909 Y28.7960
G01 X47.7938 Y28.8521
G01 X47.7977 Y28.8958
G01 X47.7977 Y28.9131
G01 X47.7995 Y28.9440
G01 X47.7980 Y28.9566
G01 X47.7977 Y28.9616
G01 X47.7977 Y34.0406
G01 X47.7995 Y34.0645
G01 X47.7872 Y34.2089
G01 X47.7827 Y34.2289
G01 X47.7817 Y34.2352
G01 X47.7740 Y34.2624
G01 X47.7539 Y34.3512
G01 X47.6933 Y34.4924
G01 X47.6834 Y34.5084
G01 X47.6776 Y34.5217
G01 X47.6492 Y34.5643
G01 X47.6173 Y34.6159
G01 X47.6001 Y34.6359
G01 X47.5954 Y34.6424
G01 X47.5804 Y34.6585
G01 X47.5358 Y34.7118
G01 X47.5064 Y34.7412
G01 X47.4986 Y34.7498
G01 X47.4914 Y34.7562
G01 X46.8454 Y35.4012
G01 X46.8344 Y35.4139
G01 X46.7177 Y35.5107
G01 X46.7029 Y35.5201
G01 X46.6975 Y35.5242
G01 X46.6544 Y35.5485
G01 X46.5954 Y35.5846
G01 X46.5783 Y35.5914
G01 X46.5676 Y35.5976
G01 X46.5558 Y35.6016
G01 X46.5237 Y35.6140
G01 X46.4608 Y35.6393
G01 X46.4550 Y35.6412
G01 X46.4451 Y35.6438
G01 X46.4258 Y35.6502
G01 X46.3698 Y35.6616
G01 X46.3187 Y35.6726
G01 X46.3107 Y35.6731
G01 X46.2889 Y35.6769
G01 X46.2026 Y35.6827
G01 X46.1394 Y35.6862
G01 X46.1127 Y35.6836
G01 X43.8247 Y35.6836
G01 X43.8162 Y35.6843
G01 X43.8067 Y35.6870
G01 X43.7990 Y35.6907
G01 X43.7920 Y35.6958
G01 X42.8303 Y36.6583
G01 X42.8255 Y36.6639
G01 X42.8221 Y36.6691
G01 X42.8194 Y36.6747
G01 X42.8174 Y36.6806
G01 X42.8162 Y36.6867
G01 X42.8022 Y36.8441
G01 X42.7976 Y36.8651
G01 X42.7968 Y36.8717
G01 X42.7871 Y36.9079
G01 X42.7681 Y36.9867
G01 X42.7594 Y37.0067
G01 X42.7566 Y37.0151
G01 X42.7426 Y37.0462
G01 X42.7090 Y37.1259
G01 X42.6983 Y37.1439
G01 X42.6946 Y37.1517
G01 X42.6632 Y37.1992
G01 X42.6289 Y37.2545
G01 X42.6184 Y37.2675
G01 X42.5472 Y37.3494
G01 X42.5194 Y37.3772
G01 X42.5147 Y37.3826
G01 X42.5054 Y37.3912
G01 X31.5144 Y48.3832
G01 X31.5088 Y48.3898
G01 X31.5050 Y48.3961
G01 X31.5022 Y48.4029
G01 X31.5004 Y48.4101
G01 X31.4997 Y48.4174
G01 X31.5003 Y48.4260
G01 X31.5023 Y48.4343
G01 X31.5051 Y48.4411
G01 X31.5096 Y48.4485
G01 X31.5153 Y48.4549
G01 X32.8743 Y49.7440
G01 X32.9800 Y49.8669
G01 X33.0578 Y49.9960
G01 X33.1153 Y50.1381
G01 X33.1463 Y50.2789
G01 X33.1566 Y50.4225
G01 X33.1451 Y50.5738
G01 X33.1439 Y50.5815
G01 X33.1368 Y50.6667
G01 X33.1370 Y50.6753
G01 X33.1384 Y50.6825
G01 X33.1404 Y50.6884
G01 X33.1430 Y50.6939
G01 X33.1464 Y50.6991
G01 X33.1503 Y50.7039
G01 X33.1548 Y50.7081
G01 X33.1597 Y50.7117
G01 X33.1651 Y50.7147
G01 X33.1708 Y50.7170
G01 X33.1768 Y50.7186
G01 X33.1829 Y50.7195
G01 X33.1890 Y50.7195
G01 X33.1951 Y50.7189
G01 X33.2000 Y50.7178
G01 X33.2058 Y50.7158
G01 X33.2113 Y50.7131
G01 X33.2165 Y50.7098
G01 X33.2221 Y50.7050
G01 X43.1091 Y40.8170
G01 X43.1139 Y40.8114
G01 X43.1178 Y40.8052
G01 X43.1212 Y40.7973
G01 X43.1230 Y40.7902
G01 X43.1237 Y40.7816
G01 X43.1237 Y37.4912
G01 X43.1400 Y37.3318
G01 X43.1799 Y37.1867
G01 X43.2415 Y37.0510
G01 X43.3223 Y36.9303
G01 X43.4106 Y36.8313
G01 X43.4217 Y36.8195
G01 X43.5370 Y36.7280
G01 X43.6656 Y36.6533
G01 X43.8010 Y36.6026
G01 X43.9445 Y36.5703
G01 X44.0958 Y36.5627
G01 X44.2411 Y36.5770
G01 X44.3834 Y36.6130
G01 X44.5194 Y36.6730
G01 X44.6406 Y36.7487
G01 X44.6928 Y36.7952
G01 X44.7538 Y36.8486
G01 X44.8479 Y36.9618
G01 X44.9269 Y37.0915
G01 X44.9279 Y37.0930
G01 X44.9799 Y37.2207
G01 X45.0132 Y37.3663
G01 X45.0237 Y37.4966
G01 X45.0237 Y41.1936
G01 X45.0246 Y41.2081
G01 X45.0122 Y41.3524
G01 X45.0085 Y41.3679
G01 X45.0071 Y41.3825
G01 X44.9971 Y41.4178
G01 X44.9780 Y41.4962
G01 X44.9680 Y41.5209
G01 X44.9660 Y41.5275
G01 X44.9500 Y41.5614
G01 X44.9205 Y41.6334
G01 X44.9114 Y41.6466
G01 X44.9045 Y41.6618
G01 X44.8720 Y41.7111
G01 X44.8421 Y41.7583
G01 X44.8344 Y41.7678
G01 X44.8228 Y41.7834
G01 X44.7768 Y41.8350
G01 X44.7553 Y41.8611
G01 X44.7409 Y41.8747
G01 X44.7257 Y41.8917
G01 X44.7124 Y41.9032
G01 X33.3027 Y53.3139
G01 X33.2973 Y53.3177
G01 X33.2453 Y53.3597
G01 X33.1928 Y53.4038
G01 X33.1852 Y53.4090
G01 X33.1799 Y53.4120
G01 X33.1743 Y53.4164
G01 X33.1201 Y53.4477
G01 X33.0676 Y53.4790
G01 X33.0567 Y53.4837
G01 X33.0490 Y53.4879
G01 X32.9886 Y53.5100
G01 X32.9375 Y53.5310
G01 X32.9291 Y53.5328
G01 X32.9026 Y53.5418
G01 X32.8439 Y53.5536
G01 X32.7882 Y53.5663
G01 X32.7671 Y53.5688
G01 X32.6629 Y53.5756
G01 X32.6483 Y53.5756
G01 X32.6154 Y53.5774
G01 X32.6027 Y53.5759
G01 X32.5977 Y53.5756
G01 X29.1327 Y53.5756
G01 X29.1116 Y53.5766
G01 X28.9651 Y53.5621
G01 X28.9551 Y53.5601
G01 X28.9404 Y53.5555
G01 X28.9259 Y53.5521
G01 X28.8887 Y53.5421
G01 X28.8233 Y53.5259
G01 X28.8114 Y53.5211
G01 X28.6889 Y53.4666
G01 X28.6820 Y53.4624
G01 X28.6700 Y53.4567
G01 X28.6206 Y53.4245
G01 X28.5665 Y53.3899
G01 X28.5553 Y53.3801
G01 X28.5472 Y53.3750
G01 X28.4856 Y53.3188
G01 X28.4520 Y53.2891
G01 X28.4404 Y53.2784
G01 X28.3859 Y53.2096
G01 X28.3478 Y53.1627
G01 X28.3050 Y53.0886
G01 X28.2817 Y53.0494
G01 X28.2787 Y53.0429
G01 X28.2740 Y53.0348
G01 X28.2592 Y52.9951
G01 X28.2256 Y52.9107
G01 X28.1904 Y52.7558
G01 X28.1866 Y52.6840
G01 X28.1837 Y52.6457
G01 X28.1837 Y52.6185
G01 X28.1828 Y52.6043
G01 X28.1837 Y52.5866
G01 X28.1837 Y50.8486
G01 X28.1831 Y50.8408
G01 X28.1755 Y50.7997
G01 X28.1679 Y50.6553
G01 X28.1849 Y50.5150
G01 X28.2240 Y50.3653
G01 X28.2828 Y50.2345
G01 X28.3609 Y50.1125
G01 X28.4622 Y50.0000
G01 X28.5066 Y49.9641
G01 X28.5782 Y49.9050
G01 X28.6207 Y49.8809
G01 X28.7027 Y49.8336
G01 X28.7640 Y49.8087
G01 X28.8387 Y49.7775
G01 X28.9828 Y49.7463
G01 X29.1302 Y49.7367
G01 X29.2747 Y49.7491
G01 X29.4180 Y49.7833
G01 X29.4805 Y49.8098
G01 X29.5537 Y49.8402
G01 X29.6803 Y49.9192
G01 X29.7819 Y50.0045
G01 X29.8265 Y50.0491
G01 X29.8748 Y50.1090
G01 X29.9086 Y50.1496
G01 X29.9244 Y50.1724
G01 X29.9618 Y50.2393
G01 X29.9855 Y50.2763
G01 X29.9976 Y50.3030
G01 X30.0234 Y50.3715
G01 X30.0344 Y50.3985
G01 X30.0404 Y50.4121
G01 X30.0428 Y50.4240
G01 X30.0496 Y50.4429
G01 X30.0638 Y50.5127
G01 X30.0744 Y50.5591
G01 X30.0769 Y50.5802
G01 X30.0808 Y50.6437
G01 X30.0837 Y50.6825
G01 X30.0838 Y50.7037
G01 X30.0855 Y50.7320
G01 X30.0840 Y50.7446
G01 X30.0837 Y50.7496
G01 X30.0837 Y51.6268
G01 X30.0845 Y51.6342
G01 X30.0862 Y51.6413
G01 X30.0891 Y51.6481
G01 X30.0928 Y51.6544
G01 X30.0975 Y51.6601
G01 X30.1030 Y51.6650
G01 X30.1080 Y51.6685
G01 X30.1146 Y51.6718
G01 X30.1240 Y51.6746
G01 X30.1337 Y51.6756
G01 X32.2307 Y51.6756
G01 X32.2368 Y51.6752
G01 X32.2452 Y51.6735
G01 X32.2521 Y51.6708
G01 X32.2585 Y51.6672
G01 X32.2652 Y51.6618
G01 X32.4918 Y51.4352
G01 X32.4963 Y51.4294
G01 X32.4999 Y51.4229
G01 X32.5026 Y51.4161
G01 X32.5042 Y51.4089
G01 X32.5047 Y51.4015
G01 X32.5042 Y51.3942
G01 X32.5025 Y51.3870
G01 X32.4999 Y51.3801
G01 X32.4962 Y51.3737
G01 X32.4925 Y51.3688
G01 X32.4881 Y51.3644
G01 X32.4833 Y51.3606
G01 X32.4770 Y51.3568
G01 X32.4713 Y51.3544
G01 X32.4654 Y51.3528
G01 X32.4593 Y51.3518
G01 X32.4507 Y51.3518
G01 X32.2181 Y51.3705
G01 X32.0734 Y51.3619
G01 X31.9340 Y51.3325
G01 X31.7936 Y51.2784
G01 X31.6642 Y51.2023
G01 X31.5637 Y51.1210
G01 X29.4821 Y49.1473
G01 X29.4756 Y49.1419
G01 X22.6181 Y42.6383
G01 X22.6134 Y42.6344
G01 X22.6061 Y42.6299
G01 X22.5994 Y42.6271
G01 X22.5922 Y42.6253
G01 X22.5837 Y42.6246
G01 X18.2303 Y42.6246
G01 X18.0720 Y42.6084
G01 X18.0669 Y42.6073
G01 X17.9248 Y42.5684
G01 X17.7892 Y42.5068
G01 X17.6700 Y42.4264
G01 X17.5592 Y42.3272
G01 X17.4671 Y42.2113
G01 X17.3924 Y42.0827
G00 Z2.0000
G00 X22.7509 Y35.8645
G01 F60.00
G01 Z0.0000
G01 F60.00
G01 X22.7855 Y35.9027
G01 X22.8176 Y35.9461
G01 X22.8454 Y35.9924
G01 X22.8685 Y36.0412
G01 X22.8867 Y36.0921
G01 X22.8998 Y36.1445
G01 X22.9077 Y36.1979
G01 X22.9104 Y36.2518
G01 X22.9077 Y36.3057
G01 X22.8998 Y36.3592
G01 X22.8867 Y36.4115
G01 X22.8685 Y36.4624
G01 X22.8454 Y36.5112
G01 X22.8176 Y36.5575
G01 X22.7855 Y36.6009
G01 X22.7509 Y36.6391
G01 X22.7073 Y36.6787
G01 X22.6658 Y36.7093
G01 X22.6173 Y36.7382
G01 X22.5707 Y36.7602
G01 X22.5198 Y36.7784
G01 X22.4675 Y36.7915
G01 X22.4116 Y36.7996
G01 X22.3601 Y36.8021
G01 X22.3062 Y36.7994
G01 X22.2528 Y36.7915
G01 X22.2004 Y36.7784
G01 X22.1495 Y36.7602
G01 X22.1007 Y36.7371
G01 X22.0544 Y36.7093
G01 X22.0101 Y36.6764
G01 X21.9710 Y36.6409
G01 X12.2796 Y26.9495
G01 X12.2434 Y26.9095
G01 X12.2105 Y26.8651
G01 X12.1834 Y26.8198
G01 X12.1613 Y26.7732
G01 X12.1422 Y26.7201
G01 X12.1286 Y26.6653
G01 X12.1211 Y26.6143
G01 X12.1185 Y26.5616
G01 X12.1186 Y20.2977
G01 X12.1215 Y20.2425
G01 X12.1291 Y20.1916
G01 X12.1416 Y20.1415
G01 X12.1605 Y20.0883
G01 X12.1835 Y20.0395
G01 X12.2127 Y19.9912
G01 X12.2435 Y19.9498
G01 X12.2780 Y19.9116
G01 X12.3197 Y19.8736
G01 X12.3641 Y19.8407
G01 X12.4116 Y19.8125
G01 X12.4582 Y19.7905
G01 X12.5068 Y19.7731
G01 X12.5615 Y19.7592
G01 X12.6173 Y19.7511
G01 X12.6688 Y19.7487
G01 X12.7203 Y19.7511
G01 X12.7762 Y19.7592
G01 X12.8309 Y19.7731
G01 X12.8794 Y19.7905
G01 X12.9260 Y19.8125
G01 X12.9745 Y19.8414
G01 X13.0198 Y19.8752
G01 X13.0579 Y19.9098
G01 X13.0926 Y19.9480
G01 X13.1263 Y19.9932
G01 X13.1541 Y20.0395
G01 X13.1781 Y20.0906
G01 X13.1954 Y20.1392
G01 X13.2080 Y20.1892
G01 X13.2163 Y20.2437
G01 X13.2191 Y20.2989
G01 X13.2191 Y26.3326
G01 X22.7509 Y35.8645
G00 Z2.0000
G00 X25.2790 Y35.8931
G01 F60.00
G01 Z0.0000
G01 F60.00
G01 X25.3136 Y35.9313
G01 X25.3457 Y35.9747
G01 X25.3735 Y36.0210
G01 X25.3966 Y36.0698
G01 X25.4148 Y36.1207
G01 X25.4279 Y36.1731
G01 X25.4358 Y36.2265
G01 X25.4385 Y36.2804
G01 X25.4358 Y36.3343
G01 X25.4279 Y36.3878
G01 X25.4148 Y36.4401
G01 X25.3966 Y36.4910
G01 X25.3735 Y36.5398
G01 X25.3457 Y36.5861
G01 X25.3136 Y36.6295
G01 X25.2790 Y36.6677
G01 X25.2354 Y36.7073
G01 X25.1939 Y36.7379
G01 X25.1454 Y36.7668
G01 X25.0988 Y36.7888
G01 X25.0479 Y36.8070
G01 X24.9956 Y36.8201
G01 X24.9397 Y36.8282
G01 X24.8882 Y36.8307
G01 X24.8343 Y36.8280
G01 X24.7809 Y36.8201
G01 X24.7285 Y36.8070
G01 X24.6776 Y36.7888
G01 X24.6288 Y36.7657
G01 X24.5825 Y36.7379
G01 X24.5382 Y36.7050
G01 X24.4991 Y36.6695
G01 X14.0534 Y26.2238
G01 X14.0172 Y26.1838
G01 X13.9857 Y26.1414
G01 X13.9561 Y26.0919
G01 X13.9342 Y26.0453
G01 X13.9160 Y25.9944
G01 X13.9024 Y25.9396
G01 X13.8949 Y25.8886
G01 X13.8923 Y25.8359
G01 X13.8923 Y20.8883
G01 X13.8952 Y20.8331
G01 X13.9028 Y20.7822
G01 X13.9153 Y20.7321
G01 X13.9342 Y20.6789
G01 X13.9572 Y20.6301
G01 X13.9850 Y20.5838
G01 X14.0188 Y20.5386
G01 X14.0534 Y20.5004
G01 X14.0916 Y20.4658
G01 X14.1358 Y20.4327
G01 X14.1831 Y20.4042
G01 X14.2342 Y20.3803
G01 X14.2828 Y20.3629
G01 X14.3328 Y20.3504
G01 X14.3886 Y20.3419
G01 X14.4425 Y20.3393
G01 X14.4989 Y20.3422
G01 X14.5499 Y20.3498
G01 X14.5999 Y20.3623
G01 X14.6531 Y20.3811
G01 X14.7040 Y20.4054
G01 X14.7482 Y20.4320
G01 X14.7897 Y20.4626
G01 X14.8316 Y20.5004
G01 X14.8679 Y20.5404
G01 X14.9013 Y20.5859
G01 X14.9278 Y20.6301
G01 X14.9499 Y20.6767
G01 X14.9691 Y20.7298
G01 X14.9824 Y20.7834
G01 X14.9901 Y20.8356
G01 X14.9928 Y20.8895
G01 X14.9928 Y25.6068
G01 X25.2790 Y35.8931
G00 Z2.0000
G00 X39.2859 Y32.2365
G01 F60.00
G01 Z0.0000
G01 F60.00
G01 X39.2147 Y31.9720
G01 X39.2147 Y31.6913
G01 X39.2863 Y31.4270
G01 X39.4247 Y31.1873
G01 X39.6194 Y30.9926
G01 X39.8597 Y30.8538
G01 X40.1233 Y30.7826
G01 X40.4041 Y30.7826
G01 X40.6678 Y30.8538
G01 X40.9080 Y30.9926
G01 X41.1027 Y31.1873
G01 X41.1496 Y31.2689
G01 X41.2233 Y31.3940
G01 X41.2263 Y31.3978
G01 X41.2307 Y31.4021
G01 X41.2355 Y31.4059
G01 X41.2408 Y31.4090
G01 X41.2463 Y31.4115
G01 X41.2522 Y31.4133
G01 X41.2582 Y31.4143
G01 X41.2643 Y31.4146
G01 X41.2704 Y31.4142
G01 X41.2764 Y31.4130
G01 X41.2822 Y31.4110
G01 X41.2878 Y31.4084
G01 X41.2929 Y31.4052
G01 X41.2977 Y31.4013
G01 X41.3011 Y31.3978
G01 X41.3049 Y31.3930
G01 X41.3778 Y31.2689
G01 X41.4248 Y31.1873
G01 X41.6194 Y30.9926
G01 X41.8597 Y30.8538
G01 X42.1233 Y30.7826
G01 X42.4041 Y30.7826
G01 X42.6678 Y30.8538
G01 X42.9080 Y30.9926
G01 X43.1261 Y31.2107
G01 X43.1330 Y31.2158
G01 X43.1417 Y31.2203
G01 X43.1512 Y31.2229
G01 X43.1597 Y31.2236
G01 X43.1683 Y31.2229
G01 X43.1777 Y31.2203
G01 X43.1854 Y31.2165
G01 X43.1924 Y31.2115
G01 X43.1984 Y31.2053
G01 X43.2038 Y31.1972
G01 X43.2076 Y31.1881
G01 X43.2093 Y31.1797
G01 X43.2097 Y31.1736
G01 X43.2097 Y30.7776
G01 X45.3177 Y30.7776
G01 X45.3177 Y32.8856
G01 X43.2097 Y32.8856
G01 X43.2097 Y32.4886
G01 X43.2093 Y32.4825
G01 X43.2076 Y32.4741
G01 X43.2038 Y32.4650
G01 X43.1983 Y32.4568
G01 X43.1923 Y32.4507
G01 X43.1843 Y32.4450
G01 X43.1765 Y32.4415
G01 X43.1681 Y32.4393
G01 X43.1596 Y32.4386
G01 X43.1510 Y32.4394
G01 X43.1415 Y32.4420
G01 X43.1328 Y32.4465
G01 X43.1260 Y32.4517
G01 X42.9079 Y32.6716
G01 X42.6675 Y32.8100
G01 X42.4041 Y32.8806
G01 X42.1233 Y32.8806
G01 X41.8600 Y32.8100
G01 X41.6196 Y32.6717
G01 X41.4257 Y32.4749
G01 X41.3041 Y32.2691
G01 X41.3002 Y32.2644
G01 X41.2967 Y32.2610
G01 X41.2919 Y32.2573
G01 X41.2866 Y32.2542
G01 X41.2811 Y32.2517
G01 X41.2764 Y32.2502
G01 X41.2704 Y32.2491
G01 X41.2643 Y32.2486
G01 X41.2582 Y32.2489
G01 X41.2522 Y32.2499
G01 X41.2464 Y32.2517
G01 X41.2408 Y32.2542
G01 X41.2355 Y32.2573
G01 X41.2317 Y32.2602
G01 X41.2272 Y32.2644
G01 X41.2233 Y32.2691
G01 X41.1018 Y32.4749
G01 X40.9079 Y32.6717
G01 X40.6675 Y32.8100
G01 X40.4041 Y32.8806
G01 X40.1233 Y32.8806
G01 X39.8600 Y32.8100
G01 X39.6195 Y32.6716
G01 X39.4247 Y32.4740
G01 X39.2859 Y32.2365
G00 Z2.0000
G00 X39.6097 Y31.8289
G01 F60.00
G01 Z0.0000
G01 F60.00
G01 X39.6128 Y31.7672
G01 X39.6222 Y31.7037
G01 X39.6378 Y31.6415
G01 X39.6594 Y31.5810
G01 X39.6868 Y31.5230
G01 X39.7198 Y31.4680
G01 X39.7581 Y31.4164
G01 X39.8012 Y31.3689
G01 X39.8487 Y31.3258
G01 X39.9003 Y31.2875
G01 X39.9553 Y31.2545
G01 X40.0133 Y31.2271
G01 X40.0738 Y31.2055
G01 X40.1360 Y31.1899
G01 X40.1995 Y31.1805
G01 X40.2636 Y31.1773
G01 X40.3277 Y31.1805
G01 X40.3912 Y31.1899
G01 X40.4535 Y31.2055
G01 X40.5139 Y31.2271
G01 X40.5719 Y31.2545
G01 X40.6270 Y31.2875
G01 X40.6785 Y31.3258
G01 X40.7261 Y31.3689
G01 X40.7692 Y31.4164
G01 X40.8074 Y31.4680
G01 X40.8404 Y31.5230
G01 X40.8678 Y31.5810
G01 X40.8895 Y31.6415
G01 X40.9050 Y31.7037
G01 X40.9145 Y31.7672
G01 X40.9176 Y31.8313
G01 X40.9145 Y31.8954
G01 X40.9050 Y31.9589
G01 X40.8895 Y32.0212
G01 X40.8678 Y32.0816
G01 X40.8404 Y32.1396
G01 X40.8074 Y32.1946
G01 X40.7692 Y32.2462
G01 X40.7261 Y32.2938
G01 X40.6785 Y32.3369
G01 X40.6270 Y32.3751
G01 X40.5719 Y32.4081
G01 X40.5139 Y32.4355
G01 X40.4535 Y32.4571
G01 X40.3912 Y32.4727
G01 X40.3277 Y32.4822
G01 X40.2636 Y32.4853
G01 X40.1995 Y32.4822
G01 X40.1360 Y32.4727
G01 X40.0738 Y32.4571
G01 X40.0133 Y32.4355
G01 X39.9553 Y32.4081
G01 X39.9003 Y32.3751
G01 X39.8487 Y32.3369
G01 X39.8012 Y32.2938
G01 X39.7581 Y32.2462
G01 X39.7198 Y32.1946
G01 X39.6868 Y32.1396
G01 X39.6594 Y32.0816
G01 X39.6378 Y32.0212
G01 X39.6222 Y31.9589
G01 X39.6128 Y31.8954
G01 X39.6097 Y31.8289
G00 Z2.0000
G00 X41.6097 Y31.8288
G01 F60.00
G01 Z0.0000
G01 F60.00
G01 X41.6128 Y31.7672
G01 X41.6222 Y31.7037
G01 X41.6378 Y31.6415
G01 X41.6594 Y31.5810
G01 X41.6868 Y31.5230
G01 X41.7198 Y31.4680
G01 X41.7581 Y31.4164
G01 X41.8012 Y31.3689
G01 X41.8487 Y31.3258
G01 X41.9003 Y31.2875
G01 X41.9553 Y31.2545
G01 X42.0133 Y31.2271
G01 X42.0738 Y31.2055
G01 X42.1360 Y31.1899
G01 X42.1995 Y31.1804
G01 X42.2636 Y31.1773
G01 X42.3277 Y31.1804
G01 X42.3912 Y31.1899
G01 X42.4535 Y31.2055
G01 X42.5139 Y31.2271
G01 X42.5719 Y31.2545
G01 X42.6270 Y31.2875
G01 X42.6785 Y31.3258
G01 X42.7261 Y31.3689
G01 X42.7692 Y31.4164
G01 X42.8074 Y31.4680
G01 X42.8404 Y31.5230
G01 X42.8678 Y31.5810
G01 X42.8895 Y31.6415
G01 X42.9050 Y31.7037
G01 X42.9145 Y31.7672
G01 X42.9176 Y31.8313
G01 X42.9145 Y31.8954
G01 X42.9050 Y31.9589
G01 X42.8895 Y32.0211
G01 X42.8678 Y32.0816
G01 X42.8404 Y32.1396
G01 X42.8074 Y32.1946
G01 X42.7692 Y32.2462
G01 X42.7261 Y32.2937
G01 X42.6785 Y32.3368
G01 X42.6270 Y32.3751
G01 X42.5719 Y32.4081
G01 X42.5139 Y32.4355
G01 X42.4535 Y32.4571
G01 X42.3912 Y32.4727
G01 X42.3277 Y32.4822
G01 X42.2636 Y32.4853
G01 X42.1995 Y32.4822
G01 X42.1360 Y32.4727
G01 X42.0738 Y32.4571
G01 X42.0133 Y32.4355
G01 X41.9553 Y32.4081
G01 X41.9003 Y32.3751
G01 X41.8487 Y32.3368
G01 X41.8012 Y32.2937
G01 X41.7581 Y32.2462
G01 X41.7198 Y32.1946
G01 X41.6868 Y32.1396
G01 X41.6594 Y32.0816
G01 X41.6378 Y32.0211
G01 X41.6222 Y31.9589
G01 X41.6128 Y31.8954
G01 X41.6097 Y31.8288
G00 Z2.0000
G00 X44.8676 Y32.4853
G01 F60.00
G01 Z0.0000
G01 F60.00
G01 X43.6584 Y32.4853
G01 X43.6487 Y32.4841
G01 X43.6394 Y32.4810
G01 X43.6308 Y32.4762
G01 X43.6234 Y32.4698
G01 X43.6174 Y32.4620
G01 X43.6134 Y32.4544
G01 X43.6106 Y32.4450
G01 X43.6096 Y32.4353
G01 X43.6096 Y31.2273
G01 X43.6106 Y31.2175
G01 X43.6134 Y31.2082
G01 X43.6161 Y31.2027
G01 X43.6187 Y31.1985
G01 X43.6251 Y31.1911
G01 X43.6329 Y31.1851
G01 X43.6416 Y31.1806
G01 X43.6511 Y31.1780
G01 X43.6596 Y31.1773
G01 X44.8676 Y31.1773
G01 X44.8774 Y31.1783
G01 X44.8868 Y31.1811
G01 X44.8923 Y31.1838
G01 X44.8964 Y31.1864
G01 X44.9038 Y31.1928
G01 X44.9099 Y31.2005
G01 X44.9143 Y31.2093
G01 X44.9169 Y31.2187
G01 X44.9176 Y31.2273
G01 X44.9176 Y32.4365
G01 X44.9164 Y32.4463
G01 X44.9133 Y32.4556
G01 X44.9085 Y32.4641
G01 X44.9030 Y32.4707
G01 X44.8954 Y32.4769
G01 X44.8868 Y32.4815
G01 X44.8774 Y32.4843
G01 X44.8676 Y32.4853
G00 Z2.0000
G00 X47.3983 Y34.0512
G01 F60.00
G01 Z0.0000
G01 F60.00
G01 X47.3983 Y34.0570
G01 X47.3954 Y34.1109
G01 X47.3878 Y34.1619
G01 X47.3739 Y34.2166
G01 X47.3565 Y34.2651
G01 X47.3334 Y34.3139
G01 X47.3056 Y34.3602
G01 X47.2727 Y34.4045
G01 X47.2372 Y34.4436
G01 X46.5562 Y35.1245
G01 X46.5161 Y35.1606
G01 X46.4746 Y35.1912
G01 X46.4304 Y35.2178
G01 X46.3795 Y35.2421
G01 X46.3298 Y35.2599
G01 X46.2738 Y35.2738
G01 X46.2229 Y35.2813
G01 X46.1689 Y35.2840
G01 X43.6378 Y35.2840
G01 X42.4141 Y36.5077
G01 X42.4141 Y36.6884
G01 X42.4115 Y36.7411
G01 X42.4035 Y36.7958
G01 X42.3907 Y36.8470
G01 X42.3722 Y36.8990
G01 X42.3479 Y36.9499
G01 X42.3213 Y36.9941
G01 X42.2907 Y37.0355
G01 X42.2538 Y37.0766
G01 X30.9037 Y48.4267
G01 X32.5845 Y50.0202
G01 X32.6234 Y50.0611
G01 X32.6551 Y50.1017
G01 X32.6841 Y50.1473
G01 X32.7085 Y50.1955
G01 X32.7287 Y50.2481
G01 X32.7430 Y50.3002
G01 X32.7519 Y50.3510
G01 X32.7558 Y50.4024
G01 X32.7548 Y50.4588
G01 X32.7483 Y50.5124
G01 X32.7365 Y50.5651
G01 X32.7188 Y50.6187
G01 X32.6979 Y50.6659
G01 X32.6727 Y50.7108
G01 X32.6419 Y50.7551
G01 X32.6052 Y50.7981
G01 X32.5662 Y50.8354
G01 X32.5237 Y50.8687
G01 X32.4760 Y50.8989
G01 X32.4300 Y50.9221
G01 X32.3819 Y50.9408
G01 X32.3288 Y50.9558
G01 X32.2744 Y50.9655
G01 X32.2181 Y50.9696
G01 X32.1666 Y50.9683
G01 X32.1154 Y50.9622
G01 X32.0603 Y50.9501
G01 X32.0090 Y50.9333
G01 X31.9574 Y50.9104
G01 X31.9125 Y50.8850
G01 X31.8703 Y50.8555
G01 X31.8282 Y50.8197
G01 X22.7631 Y42.2253
G01 X18.2529 Y42.2253
G01 X18.2002 Y42.2227
G01 X18.1432 Y42.2141
G01 X18.0932 Y42.2016
G01 X18.0423 Y42.1834
G01 X17.9914 Y42.1591
G01 X17.9472 Y42.1325
G01 X17.9038 Y42.1004
G01 X17.8638 Y42.0641
G01 X17.8292 Y42.0259
G01 X17.7954 Y41.9807
G01 X17.7676 Y41.9344
G01 X17.7455 Y41.8878
G01 X17.7257 Y41.8324
G01 X17.7132 Y41.7824
G01 X17.7051 Y41.7265
G01 X17.7027 Y41.6725
G01 X17.7053 Y41.6211
G01 X17.7128 Y41.5701
G01 X17.7264 Y41.5153
G01 X17.7446 Y41.4644
G01 X17.7676 Y41.4156
G01 X17.7954 Y41.3693
G01 X17.8276 Y41.3259
G01 X17.8638 Y41.2859
G01 X17.9038 Y41.2497
G01 X17.9493 Y41.2162
G01 X17.9957 Y41.1886
G01 X18.0423 Y41.1666
G01 X18.0909 Y41.1492
G01 X18.1456 Y41.1353
G01 X18.1978 Y41.1275
G01 X18.2529 Y41.1248
G01 X22.9825 Y41.1248
G01 X23.0206 Y41.1261
G01 X23.0365 Y41.1274
G01 X23.0742 Y41.1325
G01 X23.0911 Y41.1356
G01 X23.1293 Y41.1447
G01 X23.1434 Y41.1488
G01 X23.1783 Y41.1608
G01 X23.1942 Y41.1671
G01 X23.2278 Y41.1825
G01 X23.2430 Y41.1903
G01 X23.2749 Y41.2089
G01 X23.2892 Y41.2182
G01 X23.3192 Y41.2398
G01 X23.3306 Y41.2489
G01 X23.3611 Y41.2757
G01 X30.1048 Y47.6693
G01 X41.3136 Y36.4605
G01 X41.3136 Y36.2773
G01 X41.3162 Y36.2259
G01 X41.3244 Y36.1713
G01 X41.3380 Y36.1177
G01 X41.3555 Y36.0692
G01 X41.3774 Y36.0226
G01 X41.4063 Y35.9741
G01 X41.4385 Y35.9307
G01 X41.4747 Y35.8907
G01 X43.0209 Y34.3445
G01 X43.0600 Y34.3090
G01 X43.1043 Y34.2761
G01 X43.1485 Y34.2495
G01 X43.2017 Y34.2244
G01 X43.2503 Y34.2070
G01 X43.3027 Y34.1939
G01 X43.3561 Y34.1860
G01 X43.4076 Y34.1834
G01 X45.9410 Y34.1835
G01 X46.2978 Y33.8267
G01 X46.2978 Y29.1413
G01 X41.4747 Y24.3183
G01 X41.4377 Y24.2773
G01 X41.4050 Y24.2328
G01 X41.3785 Y24.1886
G01 X41.3564 Y24.1420
G01 X41.3373 Y24.0889
G01 X41.3241 Y24.0366
G01 X41.3162 Y23.9831
G01 X41.3136 Y23.9267
G01 X41.3162 Y23.8753
G01 X41.3237 Y23.8243
G01 X41.3373 Y23.7695
G01 X41.3555 Y23.7186
G01 X41.3797 Y23.6677
G01 X41.4063 Y23.6235
G01 X41.4370 Y23.5821
G01 X41.4747 Y23.5401
G01 X41.5167 Y23.5023
G01 X41.5581 Y23.4717
G01 X41.6023 Y23.4451
G01 X41.6532 Y23.4208
G01 X41.7065 Y23.4020
G01 X41.7565 Y23.3895
G01 X41.8074 Y23.3819
G01 X41.8638 Y23.3790
G01 X41.9202 Y23.3819
G01 X41.9712 Y23.3895
G01 X42.0212 Y23.4020
G01 X42.0744 Y23.4208
G01 X42.1253 Y23.4451
G01 X42.1695 Y23.4717
G01 X42.2110 Y23.5023
G01 X42.2520 Y23.5393
G01 X47.2371 Y28.5243
G01 X47.2749 Y28.5663
G01 X47.3055 Y28.6077
G01 X47.3333 Y28.6540
G01 X47.3573 Y28.7051
G01 X47.3746 Y28.7537
G01 X47.3872 Y28.8037
G01 X47.3956 Y28.8595
G01 X47.3983 Y28.9134
G01 X47.3983 Y34.0512
G00 Z2.0000
G00 X44.6243 Y41.2000
G01 F60.00
G01 Z0.0000
G01 F60.00
G01 X44.6217 Y41.2514
G01 X44.6138 Y41.3049
G01 X44.6007 Y41.3572
G01 X44.5825 Y41.4081
G01 X44.5594 Y41.4569
G01 X44.5316 Y41.5032
G01 X44.4995 Y41.5466
G01 X44.4632 Y41.5866
G01 X33.0350 Y53.0149
G01 X32.9950 Y53.0512
G01 X32.9536 Y53.0819
G01 X32.9031 Y53.1122
G01 X32.8565 Y53.1342
G01 X32.8056 Y53.1524
G01 X32.7508 Y53.1659
G01 X32.6999 Y53.1734
G01 X32.6471 Y53.1760
G01 X29.1321 Y53.1760
G01 X29.0769 Y53.1731
G01 X29.0260 Y53.1655
G01 X28.9760 Y53.1530
G01 X28.9227 Y53.1342
G01 X28.8739 Y53.1111
G01 X28.8276 Y53.0833
G01 X28.7824 Y53.0495
G01 X28.7442 Y53.0149
G01 X28.7096 Y52.9767
G01 X28.6772 Y52.9335
G01 X28.6469 Y52.8830
G01 X28.6250 Y52.8364
G01 X28.6068 Y52.7855
G01 X28.5932 Y52.7307
G01 X28.5857 Y52.6797
G01 X28.5831 Y52.6283
G01 X28.5831 Y50.8079
G01 X28.5796 Y50.7935
G01 X28.5721 Y50.7426
G01 X28.5693 Y50.6862
G01 X28.5719 Y50.6335
G01 X28.5804 Y50.5777
G01 X28.5930 Y50.5277
G01 X28.6103 Y50.4791
G01 X28.6331 Y50.4302
G01 X28.6620 Y50.3817
G01 X28.6942 Y50.3383
G01 X28.7304 Y50.2983
G01 X28.7704 Y50.2621
G01 X28.8138 Y50.2299
G01 X28.8623 Y50.2010
G01 X28.9112 Y50.1782
G01 X28.9598 Y50.1608
G01 X29.0098 Y50.1483
G01 X29.0656 Y50.1398
G01 X29.1195 Y50.1372
G01 X29.1735 Y50.1398
G01 X29.2281 Y50.1480
G01 X29.2792 Y50.1608
G01 X29.3323 Y50.1800
G01 X29.3810 Y50.2033
G01 X29.4252 Y50.2299
G01 X29.4667 Y50.2605
G01 X29.5086 Y50.2983
G01 X29.5233 Y50.3130
G01 X29.5587 Y50.3521
G01 X29.5908 Y50.3955
G01 X29.6192 Y50.4429
G01 X29.6417 Y50.4906
G01 X29.6605 Y50.5438
G01 X29.6730 Y50.5939
G01 X29.6806 Y50.6448
G01 X29.6835 Y50.6987
G01 X29.6836 Y52.0756
G01 X32.4179 Y52.0756
G01 X43.5239 Y40.9696
G01 X43.5239 Y37.5143
G01 X43.5267 Y37.4591
G01 X43.5344 Y37.4070
G01 X43.5469 Y37.3569
G01 X43.5667 Y37.3015
G01 X43.5888 Y37.2549
G01 X43.6166 Y37.2086
G01 X43.6488 Y37.1652
G01 X43.6833 Y37.1270
G01 X43.7270 Y37.0874
G01 X43.7684 Y37.0568
G01 X43.8147 Y37.0290
G01 X43.8635 Y37.0059
G01 X43.9121 Y36.9885
G01 X43.9692 Y36.9742
G01 X44.0202 Y36.9667
G01 X44.0741 Y36.9641
G01 X44.1281 Y36.9667
G01 X44.1815 Y36.9746
G01 X44.2338 Y36.9877
G01 X44.2847 Y37.0059
G01 X44.3335 Y37.0290
G01 X44.3798 Y37.0568
G01 X44.4232 Y37.0890
G01 X44.4632 Y37.1252
G01 X44.4995 Y37.1652
G01 X44.5316 Y37.2086
G01 X44.5594 Y37.2549
G01 X44.5825 Y37.3037
G01 X44.6007 Y37.3546
G01 X44.6142 Y37.4094
G01 X44.6217 Y37.4604
G01 X44.6244 Y37.5143
G01 X44.6243 Y41.2000
G00 Z2.0000
G00 X41.8734 Y56.0628
G01 F60.00
G01 Z0.0000
G01 F60.00
G01 X41.8870 Y55.7860
G01 X41.9281 Y55.5093
G01 X41.9960 Y55.2380
G01 X42.0903 Y54.9747
G01 X42.2098 Y54.7218
G01 X42.3536 Y54.4819
G01 X42.5202 Y54.2573
G01 X42.7081 Y54.0500
G01 X42.9153 Y53.8622
G01 X43.1399 Y53.6956
G01 X43.3798 Y53.5518
G01 X43.6327 Y53.4322
G01 X43.8960 Y53.3380
G01 X44.1673 Y53.2701
G01 X44.4440 Y53.2290
G01 X44.7233 Y53.2153
G01 X45.0027 Y53.2290
G01 X45.2793 Y53.2701
G01 X45.5506 Y53.3380
G01 X45.8140 Y53.4322
G01 X46.0668 Y53.5518
G01 X46.3067 Y53.6956
G01 X46.5313 Y53.8622
G01 X46.7386 Y54.0500
G01 X46.9264 Y54.2573
G01 X47.0930 Y54.4819
G01 X47.2368 Y54.7218
G01 X47.3564 Y54.9747
G01 X47.4506 Y55.2380
G01 X47.5186 Y55.5093
G01 X47.5596 Y55.7860
G01 X47.5733 Y56.0653
G01 X47.5596 Y56.3447
G01 X47.5186 Y56.6213
G01 X47.4506 Y56.8926
G01 X47.3564 Y57.1560
G01 X47.2368 Y57.4088
G01 X47.0930 Y57.6487
G01 X46.9264 Y57.8733
G01 X46.7386 Y58.0806
G01 X46.5313 Y58.2684
G01 X46.3067 Y58.4350
G01 X46.0668 Y58.5788
G01 X45.8140 Y58.6984
G01 X45.5506 Y58.7926
G01 X45.2793 Y58.8605
G01 X45.0027 Y58.9016
G01 X44.7233 Y58.9153
G01 X44.4440 Y58.9016
G01 X44.1673 Y58.8605
G01 X43.8960 Y58.7926
G01 X43.6327 Y58.6984
G01 X43.3798 Y58.5788
G01 X43.1399 Y58.4350
G01 X42.9153 Y58.2684
G01 X42.7081 Y58.0806
G01 X42.5202 Y57.8733
G01 X42.3536 Y57.6487
G01 X42.2098 Y57.4088
G01 X42.0903 Y57.1560
G01 X41.9960 Y56.8926
G01 X41.9281 Y56.6213
G01 X41.8870 Y56.3447
G01 X41.8734 Y56.0628
G00 Z2.0000
G00 X43.4787 Y59.0724
G01 F60.00
G01 Z0.0000
G01 F60.00
G01 X42.7424 Y58.6466
G01 X42.1417 Y58.0459
G01 X41.7163 Y57.3093
G01 X41.4977 Y56.4920
G01 X41.4977 Y55.6382
G01 X41.7163 Y54.8209
G01 X42.1417 Y54.0843
G01 X42.7424 Y53.4836
G01 X43.4790 Y53.0582
G01 X44.2963 Y52.8396
G01 X45.1501 Y52.8396
G01 X45.9674 Y53.0582
G01 X46.7040 Y53.4836
G01 X47.3047 Y54.0843
G01 X47.7301 Y54.8209
G01 X47.9497 Y55.6382
G01 X47.9497 Y56.4920
G01 X47.7301 Y57.3093
G01 X47.3047 Y58.0459
G01 X46.7040 Y58.6466
G01 X45.9678 Y59.0724
G01 X45.1501 Y59.2916
G01 X44.2963 Y59.2916
G01 X43.4787 Y59.0724
G00 Z2.0000
G00 X58.4517 Y60.1706
G01 F60.00
G01 Z0.0000
G01 F60.00
G01 X1.2517 Y60.1706
G01 X1.2420 Y60.1696
G01 X1.2372 Y60.1685
G01 X1.2315 Y60.1663
G01 X1.2229 Y60.1615
G01 X1.2155 Y60.1551
G01 X1.2101 Y60.1484
G01 X1.2055 Y60.1397
G01 X1.2027 Y60.1304
G01 X1.2017 Y60.1206
G01 X1.2017 Y0.9206
G01 X1.2020 Y0.9157
G01 X1.2029 Y0.9096
G01 X1.2060 Y0.9003
G01 X1.2108 Y0.8918
G01 X1.2172 Y0.8844
G01 X1.2250 Y0.8784
G01 X1.2337 Y0.8740
G01 X1.2432 Y0.8713
G01 X1.2517 Y0.8706
G01 X58.4517 Y0.8706
G01 X58.4615 Y0.8716
G01 X58.4709 Y0.8744
G01 X58.4753 Y0.8765
G01 X58.4805 Y0.8797
G01 X58.4879 Y0.8861
G01 X58.4933 Y0.8928
G01 X58.4979 Y0.9015
G01 X58.5008 Y0.9108
G01 X58.5017 Y0.9206
G01 X58.5017 Y60.1206
G01 X58.5008 Y60.1304
G01 X58.4979 Y60.1397
G01 X58.4933 Y60.1484
G01 X58.4871 Y60.1560
G01 X58.4795 Y60.1622
G01 X58.4709 Y60.1668
G01 X58.4615 Y60.1696
G01 X58.4517 Y60.1706
G00 Z2.0000
G00 X26.4846 Y51.2959
G01 F60.00
G01 Z0.0000
G01 F60.00
G01 X26.5192 Y51.3341
G01 X26.5499 Y51.3755
G01 X26.5802 Y51.4260
G01 X26.6022 Y51.4726
G01 X26.6204 Y51.5235
G01 X26.6335 Y51.5759
G01 X26.6411 Y51.6268
G01 X26.6440 Y51.6857
G01 X26.6414 Y51.7371
G01 X26.6335 Y51.7906
G01 X26.6204 Y51.8429
G01 X26.6031 Y51.8915
G01 X26.5791 Y51.9426
G01 X26.5513 Y51.9889
G01 X26.5207 Y52.0303
G01 X26.4829 Y52.0723
G01 X26.4429 Y52.1086
G01 X26.4015 Y52.1393
G01 X26.3510 Y52.1696
G01 X26.3044 Y52.1916
G01 X26.2535 Y52.2098
G01 X26.2012 Y52.2229
G01 X26.1502 Y52.2305
G01 X26.0914 Y52.2334
G01 X26.0399 Y52.2308
G01 X25.9865 Y52.2229
G01 X25.9341 Y52.2098
G01 X25.8855 Y52.1925
G01 X25.8344 Y52.1685
G01 X25.7861 Y52.1393
G01 X25.7447 Y52.1086
G01 X25.7056 Y52.0731
G01 X23.2785 Y49.6461
G01 X18.1545 Y49.6460
G01 X18.1018 Y49.6434
G01 X18.0460 Y49.6349
G01 X17.9960 Y49.6224
G01 X17.9474 Y49.6051
G01 X17.8985 Y49.5822
G01 X17.8500 Y49.5533
G01 X17.8066 Y49.5212
G01 X17.7658 Y49.4841
G01 X17.7288 Y49.4431
G01 X17.6974 Y49.4007
G01 X17.6708 Y49.3565
G01 X17.6457 Y49.3033
G01 X17.6284 Y49.2547
G01 X17.6152 Y49.2024
G01 X17.6073 Y49.1489
G01 X17.6047 Y49.0962
G01 X17.6055 Y49.0775
G01 X17.6055 Y45.7173
G01 X15.5419 Y43.6537
G01 X15.5074 Y43.6155
G01 X15.4752 Y43.5721
G01 X15.4474 Y43.5258
G01 X15.4253 Y43.4792
G01 X15.4055 Y43.4238
G01 X15.3930 Y43.3738
G01 X15.3851 Y43.3203
G01 X15.3825 Y43.2664
G01 X15.3824 Y40.0109
G01 X15.3853 Y39.9545
G01 X15.3929 Y39.9036
G01 X15.4054 Y39.8535
G01 X15.4243 Y39.8003
G01 X15.4485 Y39.7494
G01 X15.4751 Y39.7052
G01 X15.5058 Y39.6638
G01 X15.5418 Y39.6236
G01 X16.5343 Y38.6310
G01 X16.5753 Y38.5940
G01 X16.6177 Y38.5626
G01 X16.6619 Y38.5360
G01 X16.7128 Y38.5117
G01 X16.7637 Y38.4935
G01 X16.8137 Y38.4810
G01 X16.8695 Y38.4725
G01 X16.9259 Y38.4699
G01 X16.9774 Y38.4725
G01 X17.0308 Y38.4804
G01 X17.0855 Y38.4943
G01 X17.1340 Y38.5117
G01 X17.1806 Y38.5337
G01 X17.2291 Y38.5626
G01 X17.2744 Y38.5964
G01 X17.3125 Y38.6310
G01 X17.3472 Y38.6692
G01 X17.3822 Y38.7165
G01 X17.4087 Y38.7607
G01 X17.4308 Y38.8073
G01 X17.4500 Y38.8604
G01 X17.4631 Y38.9128
G01 X17.4707 Y38.9637
G01 X17.4737 Y39.0213
G01 X17.4710 Y39.0740
G01 X17.4631 Y39.1275
G01 X17.4500 Y39.1798
G01 X17.4327 Y39.2284
G01 X17.4075 Y39.2816
G01 X17.3809 Y39.3258
G01 X17.3488 Y39.3692
G01 X17.3125 Y39.4092
G01 X16.4830 Y40.2387
G01 X16.4830 Y43.0385
G01 X18.5457 Y45.1012
G01 X18.5811 Y45.1403
G01 X18.6132 Y45.1837
G01 X18.6410 Y45.2300
G01 X18.6641 Y45.2788
G01 X18.6823 Y45.3297
G01 X18.6954 Y45.3821
G01 X18.7033 Y45.4355
G01 X18.7060 Y45.4882
G01 X18.7060 Y48.5456
G01 X23.5065 Y48.5456
G01 X23.5605 Y48.5482
G01 X23.6114 Y48.5557
G01 X23.6686 Y48.5700
G01 X23.7171 Y48.5874
G01 X23.7637 Y48.6094
G01 X23.8101 Y48.6370
G01 X23.8556 Y48.6705
G01 X23.8947 Y48.7059
G01 X26.4846 Y51.2959
G00 Z2.0000
G00 X9.3697 Y47.0250
G01 F60.00
G01 Z0.0000
G01 F60.00
G01 X9.1501 Y47.8423
G01 X8.7247 Y48.5789
G01 X8.1240 Y49.1796
G01 X7.3874 Y49.6050
G01 X6.5701 Y49.8246
G01 X5.7163 Y49.8246
G01 X4.8990 Y49.6050
G01 X4.1624 Y49.1796
G01 X3.5617 Y48.5789
G01 X3.1363 Y47.8423
G01 X2.9177 Y47.0250
G01 X2.9177 Y46.1712
G01 X3.1363 Y45.3539
G01 X3.5617 Y44.6173
G01 X4.1624 Y44.0166
G01 X4.8990 Y43.5912
G01 X5.7163 Y43.3716
G01 X6.5701 Y43.3716
G01 X7.3874 Y43.5912
G01 X8.1240 Y44.0166
G01 X8.7247 Y44.6173
G01 X9.1501 Y45.3539
G01 X9.3697 Y46.1712
G01 X9.3697 Y47.0250
G00 Z2.0000
G00 X3.2934 Y46.5956
G01 F60.00
G01 Z0.0000
G01 F60.00
G01 X3.3070 Y46.3188
G01 X3.3481 Y46.0421
G01 X3.4160 Y45.7708
G01 X3.5103 Y45.5075
G01 X3.6298 Y45.2546
G01 X3.7736 Y45.0147
G01 X3.9402 Y44.7901
G01 X4.1281 Y44.5828
G01 X4.3353 Y44.3950
G01 X4.5599 Y44.2284
G01 X4.7998 Y44.0846
G01 X5.0527 Y43.9650
G01 X5.3160 Y43.8708
G01 X5.5873 Y43.8029
G01 X5.8640 Y43.7618
G01 X6.1433 Y43.7481
G01 X6.4227 Y43.7618
G01 X6.6993 Y43.8029
G01 X6.9706 Y43.8708
G01 X7.2340 Y43.9650
G01 X7.4868 Y44.0846
G01 X7.7267 Y44.2284
G01 X7.9513 Y44.3950
G01 X8.1586 Y44.5828
G01 X8.3464 Y44.7901
G01 X8.5130 Y45.0147
G01 X8.6568 Y45.2546
G01 X8.7764 Y45.5075
G01 X8.8706 Y45.7708
G01 X8.9386 Y46.0421
G01 X8.9796 Y46.3188
G01 X8.9933 Y46.5981
G01 X8.9796 Y46.8775
G01 X8.9386 Y47.1541
G01 X8.8706 Y47.4254
G01 X8.7764 Y47.6888
G01 X8.6568 Y47.9416
G01 X8.5130 Y48.1815
G01 X8.3464 Y48.4061
G01 X8.1586 Y48.6134
G01 X7.9513 Y48.8012
G01 X7.7267 Y48.9678
G01 X7.4868 Y49.1116
G01 X7.2340 Y49.2312
G01 X6.9706 Y49.3254
G01 X6.6993 Y49.3933
G01 X6.4227 Y49.4344
G01 X6.1433 Y49.4481
G01 X5.8640 Y49.4344
G01 X5.5873 Y49.3933
G01 X5.3160 Y49.3254
G01 X5.0527 Y49.2312
G01 X4.7998 Y49.1116
G01 X4.5599 Y48.9678
G01 X4.3353 Y48.8012
G01 X4.1281 Y48.6134
G01 X3.9402 Y48.4061
G01 X3.7736 Y48.1815
G01 X3.6298 Y47.9416
G01 X3.5103 Y47.6888
G01 X3.4160 Y47.4254
G01 X3.3481 Y47.1541
G01 X3.3070 Y46.8775
G01 X3.2934 Y46.5956
G00 Z2.0000
G00 X50.9243 Y24.0938
G01 F60.00
G01 Z0.0000
G01 F60.00
G01 X50.9283 Y24.0873
G01 X50.9721 Y24.0264
G01 X51.0129 Y23.9782
G01 X51.0755 Y23.9203
G01 X51.1425 Y23.8771
G01 X51.2126 Y23.8421
G01 X51.2790 Y23.8208
G01 X51.3498 Y23.8043
G01 X51.4181 Y23.8006
G01 X52.3834 Y23.8006
G01 X52.4516 Y23.8043
G01 X52.5224 Y23.8208
G01 X52.5941 Y23.8438
G01 X52.6561 Y23.8771
G01 X52.7288 Y23.9204
G01 X52.7867 Y23.9783
G01 X52.8311 Y24.0264
G01 X52.8715 Y24.0889
G01 X52.9074 Y24.1570
G01 X52.9305 Y24.2289
G01 X52.9470 Y24.2997
G01 X52.9507 Y24.3680
G01 X52.9507 Y25.8833
G01 X52.9470 Y25.9515
G01 X52.9305 Y26.0223
G01 X52.9093 Y26.0887
G01 X52.8742 Y26.1588
G01 X52.8311 Y26.2258
G01 X52.7794 Y26.2812
G01 X52.7250 Y26.3317
G01 X52.6564 Y26.3777
G01 X52.5939 Y26.4056
G01 X52.5658 Y26.4159
G01 X52.5234 Y26.4322
G01 X52.4388 Y26.4469
G01 X52.3831 Y26.4506
G01 X51.4184 Y26.4506
G01 X51.3626 Y26.4469
G01 X51.2761 Y26.4322
G01 X51.2160 Y26.4088
G01 X51.1424 Y26.3768
G01 X51.0753 Y26.3290
G01 X51.0192 Y26.2821
G01 X50.9723 Y26.2260
G01 X50.9245 Y26.1588
G01 X50.8930 Y26.0866
G01 X50.8691 Y26.0252
G01 X50.8535 Y25.9349
G01 X50.8507 Y25.8852
G01 X50.8507 Y24.3699
G01 X50.8535 Y24.3162
G01 X50.8682 Y24.2316
G01 X50.8950 Y24.1585
G01 X50.9243 Y24.0938
G00 Z2.0000
G00 X51.2624 Y24.3177
G01 F60.00
G01 Z0.0000
G01 F60.00
G01 X51.2675 Y24.3056
G01 X51.2735 Y24.2938
G01 X51.2805 Y24.2824
G01 X51.2882 Y24.2715
G01 X51.2967 Y24.2612
G01 X51.3060 Y24.2516
G01 X51.3159 Y24.2427
G01 X51.3264 Y24.2346
G01 X51.3376 Y24.2272
G01 X51.3492 Y24.2207
G01 X51.3613 Y24.2151
G01 X51.3738 Y24.2103
G01 X51.3865 Y24.2065
G01 X51.3996 Y24.2037
G01 X51.4128 Y24.2018
G01 X51.4261 Y24.2009
G01 X52.3694 Y24.2008
G01 X52.3817 Y24.2012
G01 X52.3917 Y24.2022
G01 X52.4016 Y24.2037
G01 X52.4115 Y24.2058
G01 X52.4211 Y24.2083
G01 X52.4306 Y24.2115
G01 X52.4399 Y24.2151
G01 X52.4490 Y24.2192
G01 X52.4576 Y24.2237
G01 X52.4665 Y24.2290
G01 X52.4745 Y24.2344
G01 X52.4825 Y24.2404
G01 X52.4902 Y24.2469
G01 X52.4975 Y24.2538
G01 X52.5043 Y24.2610
G01 X52.5108 Y24.2687
G01 X52.5168 Y24.2766
G01 X52.5242 Y24.2878
G01 X52.5308 Y24.2997
G01 X52.5365 Y24.3118
G01 X52.5414 Y24.3250
G01 X52.5452 Y24.3381
G01 X52.5481 Y24.3519
G01 X52.5498 Y24.3652
G01 X52.5506 Y24.3785
G01 X52.5506 Y25.8739
G01 X52.5500 Y25.8842
G01 X52.5488 Y25.8949
G01 X52.5472 Y25.9048
G01 X52.5449 Y25.9149
G01 X52.5419 Y25.9253
G01 X52.5384 Y25.9350
G01 X52.5342 Y25.9449
G01 X52.5297 Y25.9542
G01 X52.5244 Y25.9636
G01 X52.5188 Y25.9722
G01 X52.5124 Y25.9810
G01 X52.5058 Y25.9889
G01 X52.4984 Y25.9968
G01 X52.4910 Y26.0040
G01 X52.4828 Y26.0110
G01 X52.4748 Y26.0170
G01 X52.4637 Y26.0244
G01 X52.4520 Y26.0309
G01 X52.4399 Y26.0365
G01 X52.4274 Y26.0413
G01 X52.4147 Y26.0451
G01 X52.4016 Y26.0479
G01 X52.3884 Y26.0498
G01 X52.3751 Y26.0507
G01 X51.4253 Y26.0507
G01 X51.4150 Y26.0500
G01 X51.4051 Y26.0488
G01 X51.3944 Y26.0469
G01 X51.3844 Y26.0445
G01 X51.3741 Y26.0414
G01 X51.3647 Y26.0379
G01 X51.3554 Y26.0339
G01 X51.3463 Y26.0293
G01 X51.3376 Y26.0244
G01 X51.3285 Y26.0185
G01 X51.3203 Y26.0124
G01 X51.3119 Y26.0055
G01 X51.3046 Y25.9986
G01 X51.2974 Y25.9912
G01 X51.2904 Y25.9829
G01 X51.2844 Y25.9750
G01 X51.2771 Y25.9639
G01 X51.2704 Y25.9519
G01 X51.2645 Y25.9391
G01 X51.2597 Y25.9263
G01 X51.2558 Y25.9127
G01 X51.2531 Y25.8993
G01 X51.2514 Y25.8861
G01 X51.2506 Y25.8720
G01 X51.2506 Y24.3807
G01 X51.2515 Y24.3644
G01 X51.2537 Y24.3487
G01 X51.2574 Y24.3328
G01 X51.2624 Y24.3177
G00 Z2.0000
G00 X41.8734 Y6.0174
G01 F60.00
G01 Z0.0000
G01 F60.00
G01 X41.8870 Y5.7406
G01 X41.9281 Y5.4639
G01 X41.9960 Y5.1926
G01 X42.0903 Y4.9293
G01 X42.2098 Y4.6764
G01 X42.3536 Y4.4365
G01 X42.5202 Y4.2119
G01 X42.7081 Y4.0046
G01 X42.9153 Y3.8168
G01 X43.1399 Y3.6502
G01 X43.3798 Y3.5064
G01 X43.6327 Y3.3868
G01 X43.8960 Y3.2926
G01 X44.1673 Y3.2247
G01 X44.4440 Y3.1836
G01 X44.7233 Y3.1699
G01 X45.0027 Y3.1836
G01 X45.2793 Y3.2247
G01 X45.5506 Y3.2926
G01 X45.8140 Y3.3868
G01 X46.0668 Y3.5064
G01 X46.3067 Y3.6502
G01 X46.5313 Y3.8168
G01 X46.7386 Y4.0046
G01 X46.9264 Y4.2119
G01 X47.0930 Y4.4365
G01 X47.2368 Y4.6764
G01 X47.3564 Y4.9293
G01 X47.4506 Y5.1926
G01 X47.5186 Y5.4639
G01 X47.5596 Y5.7406
G01 X47.5733 Y6.0199
G01 X47.5596 Y6.2993
G01 X47.5186 Y6.5759
G01 X47.4506 Y6.8472
G01 X47.3564 Y7.1106
G01 X47.2368 Y7.3634
G01 X47.0930 Y7.6033
G01 X46.9264 Y7.8279
G01 X46.7386 Y8.0352
G01 X46.5313 Y8.2230
G01 X46.3067 Y8.3896
G01 X46.0668 Y8.5334
G01 X45.8140 Y8.6530
G01 X45.5506 Y8.7472
G01 X45.2793 Y8.8151
G01 X45.0027 Y8.8562
G01 X44.7233 Y8.8699
G01 X44.4440 Y8.8562
G01 X44.1673 Y8.8151
G01 X43.8960 Y8.7472
G01 X43.6327 Y8.6530
G01 X43.3798 Y8.5334
G01 X43.1399 Y8.3896
G01 X42.9153 Y8.2230
G01 X42.7081 Y8.0352
G01 X42.5202 Y7.8279
G01 X42.3536 Y7.6033
G01 X42.2098 Y7.3634
G01 X42.0903 Y7.1106
G01 X41.9960 Y6.8472
G01 X41.9281 Y6.5759
G01 X41.8870 Y6.2993
G01 X41.8734 Y6.0174
G00 Z2.0000
G00 X41.7160 Y4.7773
G01 F60.00
G01 Z0.0000
G01 F60.00
G01 X42.1417 Y4.0393
G01 X42.7424 Y3.4386
G01 X43.4787 Y3.0128
G01 X44.2963 Y2.7936
G01 X45.1501 Y2.7936
G01 X45.9678 Y3.0128
G01 X46.7040 Y3.4386
G01 X47.3047 Y4.0393
G01 X47.7305 Y4.7773
G01 X47.9497 Y5.5932
G01 X47.9497 Y6.4470
G01 X47.7301 Y7.2643
G01 X47.3047 Y8.0009
G01 X46.7040 Y8.6016
G01 X45.9674 Y9.0270
G01 X45.1501 Y9.2456
G01 X44.2963 Y9.2456
G01 X43.4790 Y9.0270
G01 X42.7424 Y8.6016
G01 X42.1417 Y8.0009
G01 X41.7163 Y7.2643
G01 X41.4977 Y6.4470
G01 X41.4977 Y5.5932
G01 X41.7160 Y4.7773
G00 Z2.0000
M05
G00 Z2.0000
G00 Z8.00


