(G-CODE GENERATED BY FLATCAM v8.994 - www.flatcam.org - Version Date: 2020/11/7)

(Name: preprototiposecadosv3.drl_cnc)
(Type: G-code from Geometry)
(Units: MM)

(Created on Tuesday, 05 September 2023 at 18:51)

(This preprocessor is the default preprocessor used by FlatCAM.)
(It is made to work with MACH3 compatible motion controllers.)


(TOOLS DIAMETER: )
(Tool: 1 -> Dia: 0.3)
(Tool: 2 -> Dia: 0.7)
(Tool: 3 -> Dia: 0.75)
(Tool: 4 -> Dia: 3.2)

(FEEDRATE Z: )
(Tool: 1 -> Feedrate: 20.0)
(Tool: 2 -> Feedrate: 20.0)
(Tool: 3 -> Feedrate: 20.0)
(Tool: 4 -> Feedrate: 20.0)

(FEEDRATE RAPIDS: )
(Tool: 1 -> Feedrate Rapids: 1500)
(Tool: 2 -> Feedrate Rapids: 1500)
(Tool: 3 -> Feedrate Rapids: 1500)
(Tool: 4 -> Feedrate Rapids: 1500)

(Z_CUT: )
(Tool: 1 -> Z_Cut: -3.0)
(Tool: 2 -> Z_Cut: -3.0)
(Tool: 3 -> Z_Cut: -3.0)
(Tool: 4 -> Z_Cut: -3.0)

(Tools Offset: )
(Tool: 1 -> Offset Z: 0.0)
(Tool: 2 -> Offset Z: 0.0)
(Tool: 3 -> Offset Z: 0.0)
(Tool: 4 -> Offset Z: 0.0)

(Z_MOVE: )
(Tool: 1 -> Z_Move: 5.0)
(Tool: 2 -> Z_Move: 5.0)
(Tool: 3 -> Z_Move: 5.0)
(Tool: 4 -> Z_Move: 5.0)

(Z Toolchange: 5.0 mm)
(X,Y Toolchange: 0.0000, 0.0000 mm)
(Z Start: None mm)
(Z End: 8.0 mm)
(X,Y End: None mm)
(Steps per circle: 64)
(Preprocessor Excellon: default)

(X range:    4.5437 ...   52.2507  mm)
(Y range:    3.3756 ...   56.6216  mm)

(Spindle Speed: 0 RPM)
G21
G90
G94

G01 F20.00

M5
G00 Z5.0000
T1
G00 X0.0000 Y0.0000                
M6
(MSG, Change to Tool Dia = 0.3000 ||| Total drills for tool T1 = 30)
M0
G00 Z5.0000

G01 F20.00
M03
G00 X44.0737 Y23.5266
G01 Z-3.0000
G01 Z0
G00 Z5.0000
G00 X44.2637 Y29.2096
G01 Z-3.0000
G01 Z0
G00 Z5.0000
G00 X42.2637 Y29.2096
G01 Z-3.0000
G01 Z0
G00 Z5.0000
G00 X40.2637 Y29.2096
G01 Z-3.0000
G01 Z0
G00 Z5.0000
G00 X38.2637 Y29.2096
G01 Z-3.0000
G01 Z0
G00 Z5.0000
G00 X41.8637 Y37.1116
G01 Z-3.0000
G01 Z0
G00 Z5.0000
G00 X49.9007 Y35.9156
G01 Z-3.0000
G01 Z0
G00 Z5.0000
G00 X51.9007 Y35.9156
G01 Z-3.0000
G01 Z0
G00 Z5.0000
G00 X44.7237 Y55.0216
G01 Z-3.0000
G01 Z0
G00 Z5.0000
G00 X28.8517 Y45.5206
G01 Z-3.0000
G01 Z0
G00 Z5.0000
G00 X6.1437 Y55.0216
G01 Z-3.0000
G01 Z0
G00 Z5.0000
G00 X13.8517 Y45.5206
G01 Z-3.0000
G01 Z0
G00 Z5.0000
G00 X12.6687 Y40.7426
G01 Z-3.0000
G01 Z0
G00 Z5.0000
G00 X14.4427 Y40.1516
G01 Z-3.0000
G01 Z0
G00 Z5.0000
G00 X13.8517 Y30.5206
G01 Z-3.0000
G01 Z0
G00 Z5.0000
G00 X17.3107 Y24.0946
G01 Z-3.0000
G01 Z0
G00 Z5.0000
G00 X22.3597 Y24.7896
G01 Z-3.0000
G01 Z0
G00 Z5.0000
G00 X24.8887 Y24.7606
G01 Z-3.0000
G01 Z0
G00 Z5.0000
G00 X26.8827 Y24.4576
G01 Z-3.0000
G01 Z0
G00 Z5.0000
G00 X32.0747 Y19.2646
G01 Z-3.0000
G01 Z0
G00 Z5.0000
G00 X18.2527 Y19.3666
G01 Z-3.0000
G01 Z0
G00 Z5.0000
G00 X16.9237 Y22.0216
G01 Z-3.0000
G01 Z0
G00 Z5.0000
G00 X6.1437 Y14.4426
G01 Z-3.0000
G01 Z0
G00 Z5.0000
G00 X13.2787 Y11.1746
G01 Z-3.0000
G01 Z0
G00 Z5.0000
G00 X20.5667 Y9.6576
G01 Z-3.0000
G01 Z0
G00 Z5.0000
G00 X26.0937 Y9.3586
G01 Z-3.0000
G01 Z0
G00 Z5.0000
G00 X29.1197 Y10.3536
G01 Z-3.0000
G01 Z0
G00 Z5.0000
G00 X32.2057 Y10.6216
G01 Z-3.0000
G01 Z0
G00 Z5.0000
G00 X44.7237 Y4.9756
G01 Z-3.0000
G01 Z0
G00 Z5.0000
G00 X43.8517 Y15.5206
G01 Z-3.0000
G01 Z0
G00 Z5.0000
M05
G00 Z8.00


