(G-CODE GENERATED BY FLATCAM v8.994 - www.flatcam.org - Version Date: 2020/11/7)

(Name: preprototiposecadosv3-edge_cuts.gbr_iso_combined_cnc)
(Type: G-code from Geometry)
(Units: MM)

(Created on Tuesday, 05 September 2023 at 22:29)

(This preprocessor is the default preprocessor used by FlatCAM.)
(It is made to work with MACH3 compatible motion controllers.)

(TOOL DIAMETER: 0.1 mm)
(Feedrate_XY: 60.0 mm/min)
(Feedrate_Z: 60.0 mm/min)
(Feedrate rapids 1500.0 mm/min)

(Z_Cut: -3.0 mm)
(Z_Move: 2.0 mm)
(Z Start: None mm)
(Z End: 5.0 mm)
(X,Y End: None mm)
(Steps per circle: 64)
(Preprocessor Geometry: default)

(X range:    0.7767 ...   58.9267  mm)
(Y range:    0.4456 ...   60.5956  mm)

(Spindle Speed: 0.0 RPM)
G21
G90
G94

G01 F60.00

M5
G00 Z15.0000
G00 X0.0000 Y0.0000
T1
M6    
(MSG, Change to Tool Dia = 0.1000)
M0
G00 Z15.0000

M03
G01 F60.00
G00 X0.9267 Y0.5956
G01 F60.00
G01 Z-3.0000
G01 F60.00
G01 X58.7767 Y0.5956
G01 X58.7767 Y60.4456
G01 X0.9267 Y60.4456
G01 X0.9267 Y0.5956
G00 Z2.0000
G00 X58.9267 Y60.5206
G01 F60.00
G01 Z-3.0000
G01 F60.00
G01 X58.9264 Y60.5280
G01 X58.9253 Y60.5352
G01 X58.9235 Y60.5424
G01 X58.9210 Y60.5493
G01 X58.9179 Y60.5560
G01 X58.9141 Y60.5623
G01 X58.9097 Y60.5682
G01 X58.9048 Y60.5736
G01 X58.8993 Y60.5786
G01 X58.8934 Y60.5830
G01 X58.8871 Y60.5868
G01 X58.8804 Y60.5899
G01 X58.8735 Y60.5924
G01 X58.8664 Y60.5942
G01 X58.8591 Y60.5953
G01 X58.8517 Y60.5956
G01 X0.8517 Y60.5956
G01 X0.8444 Y60.5953
G01 X0.8371 Y60.5942
G01 X0.8299 Y60.5924
G01 X0.8230 Y60.5899
G01 X0.8164 Y60.5868
G01 X0.8100 Y60.5830
G01 X0.8041 Y60.5786
G01 X0.7978 Y60.5728
G01 X0.7937 Y60.5682
G01 X0.7893 Y60.5623
G01 X0.7856 Y60.5560
G01 X0.7824 Y60.5493
G01 X0.7799 Y60.5424
G01 X0.7781 Y60.5352
G01 X0.7771 Y60.5280
G01 X0.7767 Y60.5206
G01 X0.7767 Y0.5206
G01 X0.7771 Y0.5133
G01 X0.7781 Y0.5060
G01 X0.7799 Y0.4988
G01 X0.7824 Y0.4919
G01 X0.7856 Y0.4852
G01 X0.7893 Y0.4789
G01 X0.7937 Y0.4730
G01 X0.7996 Y0.4667
G01 X0.8041 Y0.4626
G01 X0.8100 Y0.4582
G01 X0.8164 Y0.4544
G01 X0.8230 Y0.4513
G01 X0.8299 Y0.4488
G01 X0.8371 Y0.4470
G01 X0.8444 Y0.4460
G01 X0.8517 Y0.4456
G01 X58.8517 Y0.4456
G01 X58.8591 Y0.4460
G01 X58.8664 Y0.4470
G01 X58.8735 Y0.4488
G01 X58.8804 Y0.4513
G01 X58.8871 Y0.4544
G01 X58.8934 Y0.4582
G01 X58.8993 Y0.4626
G01 X58.9056 Y0.4684
G01 X58.9097 Y0.4730
G01 X58.9141 Y0.4789
G01 X58.9179 Y0.4852
G01 X58.9210 Y0.4919
G01 X58.9235 Y0.4988
G01 X58.9253 Y0.5060
G01 X58.9264 Y0.5133
G01 X58.9267 Y0.5206
G01 X58.9267 Y60.5206
G00 Z2.0000
M05
G00 Z2.0000
G00 Z5.00


