(G-CODE GENERATED BY FLATCAM v8.994 - www.flatcam.org - Version Date: 2020/11/7)

(Name: preprototiposecadosv3-05f6-b_cu.gbr_iso_combined_cnc)
(Type: G-code from Geometry)
(Units: MM)

(Created on Saturday, 02 September 2023 at 21:42)

(This preprocessor is the default preprocessor used by FlatCAM.)
(It is made to work with MACH3 compatible motion controllers.)

(TOOL DIAMETER: 0.1 mm)
(Feedrate_XY: 60.0 mm/min)
(Feedrate_Z: 60.0 mm/min)
(Feedrate rapids 1500.0 mm/min)

(Z_Cut: 0.0 mm)
(Z_Move: 2.0 mm)
(Z Start: None mm)
(Z End: 5.0 mm)
(X,Y End: None mm)
(Steps per circle: 64)
(Preprocessor Geometry: default)

(X range:    0.9500 ...   58.2500  mm)
(Y range:    1.3500 ...   60.6500  mm)

(Spindle Speed: 0.0 RPM)
G21
G90
G94

G01 F60.00

M5
G00 Z15.0000
G00 X0.0000 Y0.0000
T1
M6    
(MSG, Change to Tool Dia = 0.1000)
M0
G00 Z15.0000

M03
G01 F60.00
G00 X11.5020 Y6.9264
G01 F60.00
G01 Z0.0000
G01 F60.00
G01 X11.5020 Y6.0726
G01 X11.7212 Y5.2567
G01 X12.1470 Y4.5187
G01 X12.7477 Y3.9180
G01 X13.4840 Y3.4922
G01 X14.3016 Y3.2730
G01 X15.1554 Y3.2730
G01 X15.9730 Y3.4922
G01 X16.7093 Y3.9180
G01 X17.3100 Y4.5187
G01 X17.7358 Y5.2566
G01 X17.9540 Y6.0726
G01 X17.9540 Y6.9264
G01 X17.7354 Y7.7437
G01 X17.3100 Y8.4803
G01 X16.7093 Y9.0810
G01 X15.9727 Y9.5064
G01 X15.1554 Y9.7250
G01 X14.3016 Y9.7250
G01 X13.4843 Y9.5064
G01 X12.7477 Y9.0810
G01 X12.1470 Y8.4803
G01 X11.7216 Y7.7437
G01 X11.5020 Y6.9264
G00 Z2.0000
G00 X17.5783 Y6.4968
G01 F60.00
G01 Z0.0000
G01 F60.00
G01 X17.5647 Y6.7786
G01 X17.5236 Y7.0553
G01 X17.4557 Y7.3266
G01 X17.3615 Y7.5899
G01 X17.2419 Y7.8428
G01 X17.0981 Y8.0827
G01 X16.9315 Y8.3073
G01 X16.7437 Y8.5146
G01 X16.5364 Y8.7024
G01 X16.3118 Y8.8690
G01 X16.0719 Y9.0128
G01 X15.8190 Y9.1324
G01 X15.5557 Y9.2266
G01 X15.2844 Y9.2945
G01 X15.0077 Y9.3356
G01 X14.7284 Y9.3493
G01 X14.4491 Y9.3356
G01 X14.1724 Y9.2945
G01 X13.9011 Y9.2266
G01 X13.6378 Y9.1324
G01 X13.3849 Y9.0128
G01 X13.1450 Y8.8690
G01 X12.9204 Y8.7024
G01 X12.7131 Y8.5146
G01 X12.5253 Y8.3073
G01 X12.3587 Y8.0827
G01 X12.2149 Y7.8428
G01 X12.0953 Y7.5899
G01 X12.0011 Y7.3266
G01 X11.9332 Y7.0553
G01 X11.8921 Y6.7786
G01 X11.8784 Y6.4993
G01 X11.8921 Y6.2200
G01 X11.9332 Y5.9433
G01 X12.0011 Y5.6720
G01 X12.0953 Y5.4087
G01 X12.2149 Y5.1558
G01 X12.3587 Y4.9159
G01 X12.5253 Y4.6913
G01 X12.7131 Y4.4840
G01 X12.9204 Y4.2962
G01 X13.1450 Y4.1296
G01 X13.3849 Y3.9858
G01 X13.6378 Y3.8662
G01 X13.9011 Y3.7720
G01 X14.1724 Y3.7041
G01 X14.4491 Y3.6630
G01 X14.7284 Y3.6493
G01 X15.0077 Y3.6630
G01 X15.2844 Y3.7041
G01 X15.5557 Y3.7720
G01 X15.8190 Y3.8662
G01 X16.0719 Y3.9858
G01 X16.3118 Y4.1296
G01 X16.5364 Y4.2962
G01 X16.7437 Y4.4840
G01 X16.9315 Y4.6913
G01 X17.0981 Y4.9159
G01 X17.2419 Y5.1558
G01 X17.3615 Y5.4087
G01 X17.4557 Y5.6720
G01 X17.5236 Y5.9433
G01 X17.5647 Y6.2200
G01 X17.5783 Y6.4968
G00 Z2.0000
G00 X6.9011 Y26.3503
G01 F60.00
G01 Z0.0000
G01 F60.00
G01 X6.9012 Y24.8571
G01 X6.9021 Y24.8427
G01 X6.9040 Y24.8292
G01 X6.9070 Y24.8154
G01 X6.9111 Y24.8022
G01 X6.9163 Y24.7888
G01 X6.9224 Y24.7761
G01 X6.9293 Y24.7643
G01 X6.9375 Y24.7525
G01 X6.9438 Y24.7446
G01 X6.9504 Y24.7371
G01 X6.9580 Y24.7295
G01 X6.9655 Y24.7229
G01 X6.9734 Y24.7166
G01 X6.9815 Y24.7108
G01 X6.9899 Y24.7055
G01 X6.9990 Y24.7005
G01 X7.0080 Y24.6961
G01 X7.0173 Y24.6923
G01 X7.0274 Y24.6887
G01 X7.0370 Y24.6859
G01 X7.0468 Y24.6837
G01 X7.0566 Y24.6820
G01 X7.0666 Y24.6809
G01 X7.0769 Y24.6803
G01 X8.0264 Y24.6803
G01 X8.0401 Y24.6813
G01 X8.0540 Y24.6834
G01 X8.0673 Y24.6865
G01 X8.0807 Y24.6907
G01 X8.0932 Y24.6957
G01 X8.1055 Y24.7017
G01 X8.1177 Y24.7088
G01 X8.1288 Y24.7166
G01 X8.1367 Y24.7229
G01 X8.1442 Y24.7295
G01 X8.1518 Y24.7371
G01 X8.1584 Y24.7446
G01 X8.1649 Y24.7527
G01 X8.1707 Y24.7609
G01 X8.1760 Y24.7694
G01 X8.1812 Y24.7788
G01 X8.1855 Y24.7879
G01 X8.1894 Y24.7973
G01 X8.1929 Y24.8076
G01 X8.1956 Y24.8172
G01 X8.1978 Y24.8270
G01 X8.1995 Y24.8372
G01 X8.2006 Y24.8479
G01 X8.2011 Y24.8579
G01 X8.2010 Y26.3533
G01 X8.2001 Y26.3677
G01 X8.1982 Y26.3812
G01 X8.1952 Y26.3950
G01 X8.1911 Y26.4082
G01 X8.1859 Y26.4216
G01 X8.1798 Y26.4343
G01 X8.1729 Y26.4461
G01 X8.1647 Y26.4579
G01 X8.1584 Y26.4658
G01 X8.1520 Y26.4730
G01 X8.1450 Y26.4801
G01 X8.1381 Y26.4863
G01 X8.1304 Y26.4926
G01 X8.1225 Y26.4983
G01 X8.1141 Y26.5038
G01 X8.1062 Y26.5083
G01 X8.0975 Y26.5128
G01 X8.0884 Y26.5168
G01 X8.0791 Y26.5202
G01 X8.0702 Y26.5231
G01 X8.0608 Y26.5255
G01 X8.0510 Y26.5275
G01 X8.0419 Y26.5289
G01 X8.0320 Y26.5298
G01 X8.0199 Y26.5302
G01 X7.0823 Y26.5302
G01 X7.0669 Y26.5295
G01 X7.0504 Y26.5274
G01 X7.0341 Y26.5237
G01 X7.0182 Y26.5185
G01 X7.0027 Y26.5118
G01 X6.9881 Y26.5038
G01 X6.9742 Y26.4944
G01 X6.9613 Y26.4839
G01 X6.9493 Y26.4721
G01 X6.9387 Y26.4595
G01 X6.9290 Y26.4457
G01 X6.9205 Y26.4306
G01 X6.9137 Y26.4154
G01 X6.9083 Y26.3996
G01 X6.9044 Y26.3834
G01 X6.9020 Y26.3669
G01 X6.9011 Y26.3503
G00 Z2.0000
G00 X6.5010 Y26.3626
G01 F60.00
G01 Z0.0000
G01 F60.00
G01 X6.5010 Y24.8474
G01 X6.5047 Y24.7791
G01 X6.5212 Y24.7083
G01 X6.5443 Y24.6364
G01 X6.5802 Y24.5683
G01 X6.6206 Y24.5058
G01 X6.6651 Y24.4576
G01 X6.7229 Y24.3998
G01 X6.7956 Y24.3565
G01 X6.8576 Y24.3232
G01 X6.9293 Y24.3002
G01 X7.0001 Y24.2837
G01 X7.0684 Y24.2800
G01 X8.0336 Y24.2800
G01 X8.1019 Y24.2837
G01 X8.1727 Y24.3002
G01 X8.2391 Y24.3215
G01 X8.3092 Y24.3565
G01 X8.3762 Y24.3997
G01 X8.4388 Y24.4576
G01 X8.4796 Y24.5058
G01 X8.5235 Y24.5667
G01 X8.5274 Y24.5732
G01 X8.5567 Y24.6379
G01 X8.5835 Y24.7110
G01 X8.5982 Y24.7956
G01 X8.6010 Y24.8493
G01 X8.6010 Y26.3646
G01 X8.5982 Y26.4143
G01 X8.5826 Y26.5046
G01 X8.5588 Y26.5660
G01 X8.5272 Y26.6382
G01 X8.4794 Y26.7054
G01 X8.4325 Y26.7615
G01 X8.3764 Y26.8084
G01 X8.3093 Y26.8562
G01 X8.2357 Y26.8882
G01 X8.1756 Y26.9116
G01 X8.0891 Y26.9263
G01 X8.0333 Y26.9300
G01 X7.0687 Y26.9300
G01 X7.0130 Y26.9263
G01 X6.9283 Y26.9116
G01 X6.8859 Y26.8953
G01 X6.8578 Y26.8850
G01 X6.7953 Y26.8571
G01 X6.7267 Y26.8111
G01 X6.6723 Y26.7606
G01 X6.6206 Y26.7052
G01 X6.5775 Y26.6382
G01 X6.5425 Y26.5681
G01 X6.5212 Y26.5017
G01 X6.5047 Y26.4309
G01 X6.5010 Y26.3626
G00 Z2.0000
G00 X11.6522 Y34.5439
G01 F60.00
G01 Z0.0000
G01 F60.00
G01 X11.6540 Y34.5200
G01 X11.6540 Y29.4410
G01 X11.6538 Y29.4360
G01 X11.6522 Y29.4234
G01 X11.6540 Y29.3925
G01 X11.6540 Y29.3752
G01 X11.6579 Y29.3315
G01 X11.6608 Y29.2754
G01 X11.6627 Y29.2639
G01 X11.6643 Y29.2470
G01 X11.6769 Y29.1897
G01 X11.6882 Y29.1309
G01 X11.6945 Y29.1147
G01 X11.6966 Y29.1050
G01 X11.7234 Y29.0387
G01 X11.7396 Y28.9955
G01 X11.7468 Y28.9820
G01 X11.7519 Y28.9680
G01 X11.7899 Y28.9047
G01 X11.8144 Y28.8623
G01 X11.8222 Y28.8523
G01 X11.8310 Y28.8381
G01 X11.8892 Y28.7693
G01 X11.9135 Y28.7382
G01 X11.9210 Y28.7300
G01 X11.9264 Y28.7254
G01 X16.9289 Y23.7238
G01 X17.0274 Y23.6406
G01 X17.1293 Y23.5775
G01 X17.1543 Y23.5614
G01 X17.2896 Y23.5047
G01 X17.4330 Y23.4705
G01 X17.5775 Y23.4581
G01 X17.7248 Y23.4676
G01 X17.7697 Y23.4779
G01 X17.8691 Y23.4990
G01 X18.0049 Y23.5550
G01 X18.0730 Y23.5943
G01 X18.1295 Y23.6263
G01 X18.2454 Y23.7213
G01 X18.3476 Y23.8352
G01 X18.4249 Y23.9559
G01 X18.4837 Y24.0867
G01 X18.5228 Y24.2364
G01 X18.5398 Y24.3767
G01 X18.5323 Y24.5197
G01 X18.5037 Y24.6685
G01 X18.4515 Y24.8089
G01 X18.3774 Y24.9399
G01 X18.2777 Y25.0646
G01 X13.5686 Y29.7726
G01 X13.5624 Y29.7802
G01 X13.5578 Y29.7889
G01 X13.5550 Y29.7982
G01 X13.5540 Y29.8080
G01 X13.5540 Y34.1180
G01 X13.5542 Y34.1229
G01 X13.5552 Y34.1289
G01 X13.5569 Y34.1347
G01 X13.5587 Y34.1392
G01 X13.5630 Y34.1466
G01 X13.5676 Y34.1523
G01 X13.6642 Y34.2499
G01 X13.6711 Y34.2551
G01 X13.6787 Y34.2591
G01 X13.6870 Y34.2618
G01 X13.6955 Y34.2629
G01 X15.9940 Y34.2630
G01 X15.9990 Y34.2628
G01 X16.0117 Y34.2612
G01 X16.0446 Y34.2630
G01 X16.0582 Y34.2630
G01 X16.0974 Y34.2659
G01 X16.1191 Y34.2669
G01 X16.1576 Y34.2696
G01 X16.1716 Y34.2726
G01 X16.1890 Y34.2737
G01 X16.2345 Y34.2841
G01 X16.3033 Y34.2975
G01 X16.3288 Y34.3060
G01 X16.3736 Y34.3239
G01 X16.4411 Y34.3483
G01 X16.4558 Y34.3573
G01 X16.4604 Y34.3594
G01 X16.4655 Y34.3611
G01 X16.5028 Y34.3842
G01 X16.5721 Y34.4227
G01 X16.5921 Y34.4382
G01 X16.6199 Y34.4611
G01 X16.6957 Y34.5214
G01 X18.2266 Y36.0533
G01 X18.2399 Y36.0648
G01 X18.2539 Y36.0806
G01 X18.2755 Y36.1022
G01 X18.3032 Y36.1337
G01 X18.3390 Y36.1756
G01 X18.3464 Y36.1865
G01 X18.3592 Y36.2017
G01 X18.3860 Y36.2452
G01 X18.4198 Y36.2950
G01 X18.4274 Y36.3126
G01 X18.4338 Y36.3228
G01 X18.4639 Y36.3944
G01 X18.4832 Y36.4362
G01 X18.4854 Y36.4432
G01 X18.4896 Y36.4527
G01 X18.4921 Y36.4595
G01 X18.5145 Y36.5511
G01 X18.5215 Y36.5750
G01 X18.5227 Y36.5885
G01 X18.5265 Y36.6042
G01 X18.5392 Y36.7523
G01 X18.5409 Y36.7634
G01 X18.5424 Y36.7694
G01 X18.5453 Y36.7763
G01 X18.5491 Y36.7827
G01 X18.5538 Y36.7885
G01 X29.3206 Y47.5564
G01 X29.3252 Y47.5604
G01 X29.3324 Y47.5651
G01 X29.3403 Y47.5685
G01 X29.3498 Y47.5706
G01 X29.3584 Y47.5709
G01 X29.3669 Y47.5698
G01 X29.3762 Y47.5667
G01 X29.3837 Y47.5626
G01 X29.3904 Y47.5573
G01 X35.8298 Y41.4498
G01 X35.8582 Y41.4273
G01 X35.8845 Y41.4038
G01 X35.9042 Y41.3909
G01 X35.9324 Y41.3674
G01 X35.9635 Y41.3500
G01 X35.9937 Y41.3299
G01 X35.9999 Y41.3267
G01 X36.0059 Y41.3226
G01 X36.0394 Y41.3077
G01 X36.0562 Y41.2980
G01 X36.0907 Y41.2840
G01 X36.1410 Y41.2612
G01 X36.1626 Y41.2552
G01 X36.1920 Y41.2433
G01 X36.1959 Y41.2420
G01 X36.2180 Y41.2378
G01 X36.2490 Y41.2308
G01 X36.2866 Y41.2205
G01 X36.2974 Y41.2196
G01 X36.3126 Y41.2173
G01 X36.3398 Y41.2116
G01 X36.4067 Y41.2070
G01 X36.4153 Y41.2069
G01 X36.4462 Y41.2040
G01 X36.4653 Y41.2040
G01 X36.4828 Y41.2031
G01 X36.4990 Y41.2040
G01 X41.2160 Y41.2040
G01 X41.3463 Y41.2145
G01 X41.4160 Y41.2308
G01 X41.4919 Y41.2478
G01 X41.6223 Y41.3017
G01 X41.7509 Y41.3798
G01 X41.8640 Y41.4740
G01 X41.9643 Y41.5879
G01 X42.0400 Y41.7091
G01 X42.0996 Y41.8443
G01 X42.1356 Y41.9866
G01 X42.1499 Y42.1317
G01 X42.1490 Y42.1599
G01 X42.1423 Y42.2830
G01 X42.1090 Y42.4286
G01 X42.0593 Y42.5621
G01 X41.9846 Y42.6907
G01 X41.8925 Y42.8066
G01 X41.7817 Y42.9058
G01 X41.6625 Y42.9862
G01 X41.5270 Y43.0478
G01 X41.3848 Y43.0867
G01 X41.3798 Y43.0878
G01 X41.2214 Y43.1040
G01 X36.8680 Y43.1040
G01 X36.8595 Y43.1047
G01 X36.8524 Y43.1065
G01 X36.8456 Y43.1093
G01 X36.8383 Y43.1138
G01 X36.8336 Y43.1177
G01 X29.9761 Y49.6213
G01 X29.9696 Y49.6267
G01 X27.8880 Y51.6004
G01 X27.7875 Y51.6817
G01 X27.6582 Y51.7578
G01 X27.5178 Y51.8119
G01 X27.3783 Y51.8413
G01 X27.2336 Y51.8499
G01 X27.0010 Y51.8312
G01 X26.9924 Y51.8312
G01 X26.9851 Y51.8324
G01 X26.9792 Y51.8343
G01 X26.9736 Y51.8368
G01 X26.9684 Y51.8400
G01 X26.9636 Y51.8438
G01 X26.9593 Y51.8482
G01 X26.9555 Y51.8531
G01 X26.9519 Y51.8595
G01 X26.9492 Y51.8664
G01 X26.9476 Y51.8736
G01 X26.9470 Y51.8809
G01 X26.9475 Y51.8883
G01 X26.9491 Y51.8955
G01 X26.9518 Y51.9023
G01 X26.9554 Y51.9088
G01 X26.9599 Y51.9146
G01 X27.1865 Y52.1412
G01 X27.1932 Y52.1466
G01 X27.1996 Y52.1502
G01 X27.2065 Y52.1528
G01 X27.2149 Y52.1546
G01 X27.2210 Y52.1550
G01 X29.3180 Y52.1550
G01 X29.3278 Y52.1540
G01 X29.3371 Y52.1512
G01 X29.3437 Y52.1479
G01 X29.3488 Y52.1444
G01 X29.3542 Y52.1395
G01 X29.3589 Y52.1338
G01 X29.3627 Y52.1275
G01 X29.3655 Y52.1207
G01 X29.3673 Y52.1135
G01 X29.3680 Y52.1062
G01 X29.3680 Y51.2290
G01 X29.3678 Y51.2240
G01 X29.3662 Y51.2114
G01 X29.3680 Y51.1831
G01 X29.3680 Y51.1619
G01 X29.3709 Y51.1231
G01 X29.3748 Y51.0596
G01 X29.3773 Y51.0385
G01 X29.3880 Y50.9921
G01 X29.4021 Y50.9223
G01 X29.4089 Y50.9034
G01 X29.4113 Y50.8915
G01 X29.4173 Y50.8779
G01 X29.4283 Y50.8509
G01 X29.4541 Y50.7824
G01 X29.4662 Y50.7557
G01 X29.4899 Y50.7187
G01 X29.5273 Y50.6518
G01 X29.5431 Y50.6290
G01 X29.5769 Y50.5884
G01 X29.6252 Y50.5285
G01 X29.6698 Y50.4839
G01 X29.7714 Y50.3986
G01 X29.8980 Y50.3196
G01 X29.9712 Y50.2892
G01 X30.0337 Y50.2627
G01 X30.1770 Y50.2285
G01 X30.3215 Y50.2161
G01 X30.4690 Y50.2256
G01 X30.6130 Y50.2569
G01 X30.6877 Y50.2881
G01 X30.7490 Y50.3130
G01 X30.8310 Y50.3603
G01 X30.8735 Y50.3844
G01 X30.9451 Y50.4435
G01 X30.9895 Y50.4794
G01 X31.0908 Y50.5919
G01 X31.1689 Y50.7139
G01 X31.2277 Y50.8447
G01 X31.2668 Y50.9944
G01 X31.2838 Y51.1347
G01 X31.2762 Y51.2791
G01 X31.2686 Y51.3201
G01 X31.2680 Y51.3280
G01 X31.2680 Y53.0660
G01 X31.2689 Y53.0837
G01 X31.2680 Y53.0979
G01 X31.2680 Y53.1251
G01 X31.2651 Y53.1634
G01 X31.2613 Y53.2352
G01 X31.2261 Y53.3901
G01 X31.1925 Y53.4745
G01 X31.1777 Y53.5142
G01 X31.1730 Y53.5223
G01 X31.1700 Y53.5288
G01 X31.1467 Y53.5680
G01 X31.1039 Y53.6421
G01 X31.0658 Y53.6890
G01 X31.0113 Y53.7578
G01 X30.9997 Y53.7685
G01 X30.9661 Y53.7982
G01 X30.9045 Y53.8544
G01 X30.8964 Y53.8595
G01 X30.8852 Y53.8693
G01 X30.8311 Y53.9038
G01 X30.7817 Y53.9361
G01 X30.7697 Y53.9417
G01 X30.7628 Y53.9460
G01 X30.6403 Y54.0005
G01 X30.6284 Y54.0053
G01 X30.5630 Y54.0215
G01 X30.5259 Y54.0315
G01 X30.5113 Y54.0349
G01 X30.4966 Y54.0395
G01 X30.4866 Y54.0415
G01 X30.3401 Y54.0559
G01 X30.3190 Y54.0550
G01 X26.8540 Y54.0550
G01 X26.8490 Y54.0552
G01 X26.8363 Y54.0568
G01 X26.8034 Y54.0550
G01 X26.7888 Y54.0550
G01 X26.6846 Y54.0482
G01 X26.6635 Y54.0457
G01 X26.6078 Y54.0330
G01 X26.5491 Y54.0212
G01 X26.5226 Y54.0122
G01 X26.5142 Y54.0104
G01 X26.4631 Y53.9894
G01 X26.4027 Y53.9673
G01 X26.3950 Y53.9631
G01 X26.3841 Y53.9584
G01 X26.3316 Y53.9271
G01 X26.2775 Y53.8958
G01 X26.2718 Y53.8914
G01 X26.2665 Y53.8884
G01 X26.2589 Y53.8832
G01 X26.2064 Y53.8391
G01 X26.1544 Y53.7971
G01 X26.1490 Y53.7933
G01 X14.7394 Y42.3826
G01 X14.7260 Y42.3711
G01 X14.7108 Y42.3541
G01 X14.6964 Y42.3405
G01 X14.6749 Y42.3144
G01 X14.6289 Y42.2628
G01 X14.6174 Y42.2472
G01 X14.6096 Y42.2377
G01 X14.5797 Y42.1904
G01 X14.5472 Y42.1412
G01 X14.5403 Y42.1260
G01 X14.5312 Y42.1128
G01 X14.5017 Y42.0408
G01 X14.4858 Y42.0069
G01 X14.4837 Y42.0003
G01 X14.4737 Y41.9756
G01 X14.4546 Y41.8972
G01 X14.4447 Y41.8619
G01 X14.4432 Y41.8473
G01 X14.4395 Y41.8318
G01 X14.4271 Y41.6875
G01 X14.4280 Y41.6730
G01 X14.4280 Y37.9760
G01 X14.4385 Y37.8457
G01 X14.4719 Y37.7001
G01 X14.5239 Y37.5724
G01 X14.6038 Y37.4411
G01 X14.6979 Y37.3280
G01 X14.7589 Y37.2746
G01 X14.8111 Y37.2281
G01 X14.9324 Y37.1523
G01 X15.0683 Y37.0924
G01 X15.2106 Y37.0564
G01 X15.3559 Y37.0421
G01 X15.5072 Y37.0497
G01 X15.6507 Y37.0820
G01 X15.7861 Y37.1327
G01 X15.9147 Y37.2074
G01 X16.0300 Y37.2989
G01 X16.0411 Y37.3107
G01 X16.1294 Y37.4097
G01 X16.2102 Y37.5304
G01 X16.2718 Y37.6661
G01 X16.3117 Y37.8112
G01 X16.3280 Y37.9706
G01 X16.3280 Y41.2610
G01 X16.3287 Y41.2695
G01 X16.3309 Y41.2778
G01 X16.3345 Y41.2856
G01 X16.3393 Y41.2927
G01 X26.2296 Y51.1844
G01 X26.2352 Y51.1892
G01 X26.2404 Y51.1925
G01 X26.2459 Y51.1952
G01 X26.2518 Y51.1972
G01 X26.2566 Y51.1983
G01 X26.2627 Y51.1989
G01 X26.2688 Y51.1989
G01 X26.2749 Y51.1980
G01 X26.2809 Y51.1964
G01 X26.2866 Y51.1941
G01 X26.2920 Y51.1911
G01 X26.2969 Y51.1875
G01 X26.3014 Y51.1833
G01 X26.3054 Y51.1785
G01 X26.3087 Y51.1733
G01 X26.3113 Y51.1678
G01 X26.3133 Y51.1619
G01 X26.3148 Y51.1535
G01 X26.3149 Y51.1461
G01 X26.3078 Y51.0608
G01 X26.3066 Y51.0532
G01 X26.2951 Y50.9019
G01 X26.3055 Y50.7583
G01 X26.3364 Y50.6175
G01 X26.3939 Y50.4754
G01 X26.4717 Y50.3463
G01 X26.5774 Y50.2233
G01 X27.9373 Y48.9334
G01 X27.9435 Y48.9258
G01 X27.9477 Y48.9183
G01 X27.9505 Y48.9102
G01 X27.9519 Y48.9005
G01 X27.9516 Y48.8919
G01 X27.9499 Y48.8835
G01 X27.9461 Y48.8744
G01 X27.9414 Y48.8672
G01 X27.9374 Y48.8626
G01 X16.9464 Y37.8706
G01 X16.9370 Y37.8620
G01 X16.9324 Y37.8566
G01 X16.9046 Y37.8288
G01 X16.8333 Y37.7469
G01 X16.8228 Y37.7339
G01 X16.7885 Y37.6786
G01 X16.7572 Y37.6311
G01 X16.7534 Y37.6233
G01 X16.7427 Y37.6053
G01 X16.7091 Y37.5256
G01 X16.6951 Y37.4945
G01 X16.6923 Y37.4861
G01 X16.6836 Y37.4661
G01 X16.6646 Y37.3873
G01 X16.6549 Y37.3511
G01 X16.6541 Y37.3445
G01 X16.6495 Y37.3235
G01 X16.6355 Y37.1661
G01 X16.6343 Y37.1600
G01 X16.6323 Y37.1541
G01 X16.6296 Y37.1485
G01 X16.6262 Y37.1433
G01 X16.6214 Y37.1377
G01 X15.6597 Y36.1752
G01 X15.6527 Y36.1701
G01 X15.6450 Y36.1664
G01 X15.6356 Y36.1637
G01 X15.6270 Y36.1630
G01 X13.3390 Y36.1630
G01 X13.3123 Y36.1656
G01 X13.2491 Y36.1621
G01 X13.1628 Y36.1563
G01 X13.1411 Y36.1525
G01 X13.1330 Y36.1520
G01 X13.0820 Y36.1410
G01 X13.0259 Y36.1296
G01 X13.0066 Y36.1232
G01 X12.9967 Y36.1206
G01 X12.9909 Y36.1187
G01 X12.9280 Y36.0934
G01 X12.8959 Y36.0810
G01 X12.8841 Y36.0770
G01 X12.8735 Y36.0708
G01 X12.8563 Y36.0640
G01 X12.7973 Y36.0279
G01 X12.7542 Y36.0036
G01 X12.7489 Y35.9995
G01 X12.7340 Y35.9901
G01 X12.6173 Y35.8933
G01 X12.6063 Y35.8806
G01 X11.9603 Y35.2356
G01 X11.9531 Y35.2292
G01 X11.9454 Y35.2206
G01 X11.9159 Y35.1912
G01 X11.8714 Y35.1379
G01 X11.8563 Y35.1218
G01 X11.8516 Y35.1153
G01 X11.8344 Y35.0953
G01 X11.8025 Y35.0437
G01 X11.7741 Y35.0011
G01 X11.7683 Y34.9878
G01 X11.7584 Y34.9718
G01 X11.6978 Y34.8306
G01 X11.6777 Y34.7418
G01 X11.6700 Y34.7145
G01 X11.6690 Y34.7082
G01 X11.6645 Y34.6883
G01 X11.6522 Y34.5439
G00 Z2.0000
G00 X12.0534 Y34.5306
G01 F60.00
G01 Z0.0000
G01 F60.00
G01 X12.0534 Y29.3928
G01 X12.0561 Y29.3389
G01 X12.0646 Y29.2831
G01 X12.0771 Y29.2331
G01 X12.0945 Y29.1845
G01 X12.1184 Y29.1334
G01 X12.1462 Y29.0871
G01 X12.1768 Y29.0457
G01 X12.2146 Y29.0037
G01 X17.1997 Y24.0187
G01 X17.2408 Y23.9817
G01 X17.2822 Y23.9511
G01 X17.3264 Y23.9245
G01 X17.3773 Y23.9002
G01 X17.4305 Y23.8814
G01 X17.4806 Y23.8689
G01 X17.5315 Y23.8613
G01 X17.5879 Y23.8583
G01 X17.6443 Y23.8613
G01 X17.6952 Y23.8689
G01 X17.7453 Y23.8814
G01 X17.7985 Y23.9002
G01 X17.8494 Y23.9245
G01 X17.8936 Y23.9511
G01 X17.9350 Y23.9817
G01 X17.9770 Y24.0195
G01 X18.0148 Y24.0615
G01 X18.0454 Y24.1029
G01 X18.0720 Y24.1471
G01 X18.0963 Y24.1980
G01 X18.1145 Y24.2489
G01 X18.1280 Y24.3037
G01 X18.1355 Y24.3547
G01 X18.1381 Y24.4061
G01 X18.1355 Y24.4625
G01 X18.1276 Y24.5159
G01 X18.1145 Y24.5683
G01 X18.0953 Y24.6214
G01 X18.0732 Y24.6680
G01 X18.0467 Y24.7122
G01 X18.0140 Y24.7567
G01 X17.9770 Y24.7977
G01 X13.1540 Y29.6207
G01 X13.1540 Y34.3061
G01 X13.5107 Y34.6628
G01 X16.0442 Y34.6628
G01 X16.0956 Y34.6654
G01 X16.1490 Y34.6733
G01 X16.2014 Y34.6864
G01 X16.2500 Y34.7038
G01 X16.3032 Y34.7289
G01 X16.3474 Y34.7555
G01 X16.3917 Y34.7884
G01 X16.4308 Y34.8239
G01 X17.9770 Y36.3701
G01 X18.0132 Y36.4101
G01 X18.0454 Y36.4535
G01 X18.0743 Y36.5020
G01 X18.0963 Y36.5486
G01 X18.1137 Y36.5971
G01 X18.1273 Y36.6507
G01 X18.1355 Y36.7053
G01 X18.1381 Y36.7567
G01 X18.1382 Y36.9399
G01 X29.3469 Y48.1487
G01 X36.0906 Y41.7551
G01 X36.1211 Y41.7283
G01 X36.1326 Y41.7192
G01 X36.1625 Y41.6976
G01 X36.1768 Y41.6883
G01 X36.2087 Y41.6697
G01 X36.2239 Y41.6618
G01 X36.2575 Y41.6465
G01 X36.2734 Y41.6402
G01 X36.3083 Y41.6282
G01 X36.3224 Y41.6241
G01 X36.3607 Y41.6150
G01 X36.3775 Y41.6119
G01 X36.4153 Y41.6068
G01 X36.4311 Y41.6055
G01 X36.4692 Y41.6041
G01 X41.1988 Y41.6041
G01 X41.2540 Y41.6069
G01 X41.3061 Y41.6147
G01 X41.3609 Y41.6286
G01 X41.4094 Y41.6460
G01 X41.4560 Y41.6680
G01 X41.5024 Y41.6956
G01 X41.5479 Y41.7291
G01 X41.5879 Y41.7653
G01 X41.6241 Y41.8053
G01 X41.6563 Y41.8487
G01 X41.6841 Y41.8950
G01 X41.7072 Y41.9438
G01 X41.7254 Y41.9947
G01 X41.7389 Y42.0495
G01 X41.7464 Y42.1005
G01 X41.7490 Y42.1519
G01 X41.7466 Y42.2059
G01 X41.7385 Y42.2617
G01 X41.7260 Y42.3118
G01 X41.7062 Y42.3672
G01 X41.6841 Y42.4138
G01 X41.6563 Y42.4601
G01 X41.6225 Y42.5053
G01 X41.5879 Y42.5435
G01 X41.5479 Y42.5797
G01 X41.5045 Y42.6119
G01 X41.4603 Y42.6385
G01 X41.4094 Y42.6628
G01 X41.3585 Y42.6810
G01 X41.3085 Y42.6935
G01 X41.2515 Y42.7021
G01 X41.1988 Y42.7047
G01 X36.6886 Y42.7047
G01 X27.6235 Y51.2991
G01 X27.5814 Y51.3349
G01 X27.5392 Y51.3644
G01 X27.4943 Y51.3898
G01 X27.4427 Y51.4127
G01 X27.3914 Y51.4295
G01 X27.3363 Y51.4416
G01 X27.2851 Y51.4477
G01 X27.2336 Y51.4490
G01 X27.1773 Y51.4449
G01 X27.1229 Y51.4352
G01 X27.0698 Y51.4202
G01 X27.0218 Y51.4015
G01 X26.9757 Y51.3783
G01 X26.9280 Y51.3481
G01 X26.8855 Y51.3148
G01 X26.8465 Y51.2775
G01 X26.8098 Y51.2345
G01 X26.7790 Y51.1902
G01 X26.7538 Y51.1453
G01 X26.7329 Y51.0981
G01 X26.7152 Y51.0445
G01 X26.7035 Y50.9918
G01 X26.6970 Y50.9382
G01 X26.6959 Y50.8818
G01 X26.6998 Y50.8304
G01 X26.7087 Y50.7796
G01 X26.7230 Y50.7275
G01 X26.7432 Y50.6749
G01 X26.7676 Y50.6267
G01 X26.7966 Y50.5811
G01 X26.8283 Y50.5405
G01 X26.8672 Y50.4996
G01 X28.5480 Y48.9061
G01 X17.1980 Y37.5560
G01 X17.1610 Y37.5149
G01 X17.1304 Y37.4735
G01 X17.1038 Y37.4293
G01 X17.0795 Y37.3784
G01 X17.0610 Y37.3264
G01 X17.0482 Y37.2751
G01 X17.0402 Y37.2205
G01 X17.0376 Y37.1678
G01 X17.0376 Y36.9871
G01 X15.8139 Y35.7634
G01 X13.2828 Y35.7634
G01 X13.2289 Y35.7607
G01 X13.1779 Y35.7532
G01 X13.1219 Y35.7393
G01 X13.0722 Y35.7215
G01 X13.0213 Y35.6972
G01 X12.9771 Y35.6706
G01 X12.9357 Y35.6400
G01 X12.8955 Y35.6039
G01 X12.2145 Y34.9230
G01 X12.1790 Y34.8839
G01 X12.1461 Y34.8396
G01 X12.1183 Y34.7933
G01 X12.0952 Y34.7445
G01 X12.0778 Y34.6960
G01 X12.0639 Y34.6412
G01 X12.0563 Y34.5903
G01 X12.0534 Y34.5364
G01 X12.0534 Y34.5306
G00 Z2.0000
G00 X14.1340 Y33.3650
G01 F60.00
G01 Z0.0000
G01 F60.00
G01 X14.1340 Y31.2570
G01 X16.2420 Y31.2570
G01 X16.2420 Y31.6530
G01 X16.2424 Y31.6591
G01 X16.2442 Y31.6675
G01 X16.2479 Y31.6766
G01 X16.2526 Y31.6838
G01 X16.2584 Y31.6900
G01 X16.2653 Y31.6952
G01 X16.2740 Y31.6996
G01 X16.2835 Y31.7023
G01 X16.2920 Y31.7030
G01 X16.3005 Y31.7023
G01 X16.3100 Y31.6996
G01 X16.3177 Y31.6959
G01 X16.3256 Y31.6900
G01 X16.5437 Y31.4720
G01 X16.7840 Y31.3332
G01 X17.0476 Y31.2620
G01 X17.3284 Y31.2620
G01 X17.5920 Y31.3332
G01 X17.8323 Y31.4720
G01 X18.0270 Y31.6667
G01 X18.0739 Y31.7483
G01 X18.1468 Y31.8724
G01 X18.1506 Y31.8772
G01 X18.1550 Y31.8815
G01 X18.1598 Y31.8853
G01 X18.1640 Y31.8878
G01 X18.1695 Y31.8904
G01 X18.1753 Y31.8924
G01 X18.1813 Y31.8935
G01 X18.1874 Y31.8940
G01 X18.1935 Y31.8937
G01 X18.1995 Y31.8927
G01 X18.2054 Y31.8909
G01 X18.2110 Y31.8884
G01 X18.2162 Y31.8853
G01 X18.2210 Y31.8815
G01 X18.2254 Y31.8772
G01 X18.2284 Y31.8734
G01 X18.3021 Y31.7483
G01 X18.3490 Y31.6667
G01 X18.5437 Y31.4720
G01 X18.7840 Y31.3332
G01 X19.0476 Y31.2620
G01 X19.3284 Y31.2620
G01 X19.5920 Y31.3332
G01 X19.8323 Y31.4720
G01 X20.0270 Y31.6667
G01 X20.1654 Y31.9063
G01 X20.2370 Y32.1707
G01 X20.2370 Y32.4514
G01 X20.1658 Y32.7159
G01 X20.0270 Y32.9534
G01 X19.8322 Y33.1510
G01 X19.5917 Y33.2894
G01 X19.3284 Y33.3600
G01 X19.0476 Y33.3600
G01 X18.7843 Y33.2894
G01 X18.5438 Y33.1511
G01 X18.3499 Y32.9543
G01 X18.2284 Y32.7485
G01 X18.2245 Y32.7438
G01 X18.2201 Y32.7396
G01 X18.2152 Y32.7360
G01 X18.2109 Y32.7336
G01 X18.2053 Y32.7311
G01 X18.1995 Y32.7293
G01 X18.1935 Y32.7283
G01 X18.1874 Y32.7280
G01 X18.1813 Y32.7285
G01 X18.1753 Y32.7296
G01 X18.1707 Y32.7311
G01 X18.1651 Y32.7336
G01 X18.1598 Y32.7367
G01 X18.1550 Y32.7404
G01 X18.1515 Y32.7438
G01 X18.1476 Y32.7485
G01 X18.0261 Y32.9543
G01 X17.8322 Y33.1511
G01 X17.5917 Y33.2894
G01 X17.3284 Y33.3600
G01 X17.0476 Y33.3600
G01 X16.7843 Y33.2894
G01 X16.5438 Y33.1510
G01 X16.3257 Y32.9311
G01 X16.3179 Y32.9252
G01 X16.3102 Y32.9214
G01 X16.3007 Y32.9188
G01 X16.2922 Y32.9180
G01 X16.2836 Y32.9187
G01 X16.2753 Y32.9209
G01 X16.2674 Y32.9244
G01 X16.2594 Y32.9301
G01 X16.2526 Y32.9372
G01 X16.2479 Y32.9444
G01 X16.2442 Y32.9535
G01 X16.2424 Y32.9619
G01 X16.2420 Y32.9680
G01 X16.2420 Y33.3650
G01 X14.1340 Y33.3650
G00 Z2.0000
G00 X14.5841 Y32.9647
G01 F60.00
G01 Z0.0000
G01 F60.00
G01 X14.5743 Y32.9637
G01 X14.5650 Y32.9609
G01 X14.5563 Y32.9563
G01 X14.5487 Y32.9500
G01 X14.5425 Y32.9425
G01 X14.5384 Y32.9350
G01 X14.5353 Y32.9256
G01 X14.5341 Y32.9159
G01 X14.5341 Y31.7067
G01 X14.5351 Y31.6969
G01 X14.5375 Y31.6887
G01 X14.5419 Y31.6799
G01 X14.5479 Y31.6722
G01 X14.5514 Y31.6688
G01 X14.5563 Y31.6651
G01 X14.5650 Y31.6605
G01 X14.5743 Y31.6577
G01 X14.5841 Y31.6567
G01 X15.7921 Y31.6567
G01 X15.8006 Y31.6574
G01 X15.8101 Y31.6600
G01 X15.8189 Y31.6644
G01 X15.8266 Y31.6705
G01 X15.8330 Y31.6779
G01 X15.8356 Y31.6820
G01 X15.8383 Y31.6876
G01 X15.8411 Y31.6969
G01 X15.8421 Y31.7067
G01 X15.8421 Y32.9147
G01 X15.8414 Y32.9232
G01 X15.8388 Y32.9327
G01 X15.8343 Y32.9414
G01 X15.8283 Y32.9492
G01 X15.8209 Y32.9556
G01 X15.8124 Y32.9604
G01 X15.8031 Y32.9635
G01 X15.7933 Y32.9647
G01 X14.5841 Y32.9647
G00 Z2.0000
G00 X17.8420 Y32.3082
G01 F60.00
G01 Z0.0000
G01 F60.00
G01 X17.8390 Y32.3748
G01 X17.8295 Y32.4383
G01 X17.8139 Y32.5005
G01 X17.7923 Y32.5610
G01 X17.7649 Y32.6190
G01 X17.7319 Y32.6740
G01 X17.6936 Y32.7256
G01 X17.6505 Y32.7731
G01 X17.6030 Y32.8162
G01 X17.5514 Y32.8545
G01 X17.4964 Y32.8875
G01 X17.4384 Y32.9149
G01 X17.3779 Y32.9365
G01 X17.3157 Y32.9521
G01 X17.2522 Y32.9615
G01 X17.1881 Y32.9647
G01 X17.1240 Y32.9615
G01 X17.0605 Y32.9521
G01 X16.9983 Y32.9365
G01 X16.9378 Y32.9149
G01 X16.8798 Y32.8875
G01 X16.8248 Y32.8545
G01 X16.7732 Y32.8162
G01 X16.7257 Y32.7731
G01 X16.6826 Y32.7256
G01 X16.6443 Y32.6740
G01 X16.6113 Y32.6190
G01 X16.5839 Y32.5610
G01 X16.5623 Y32.5005
G01 X16.5467 Y32.4383
G01 X16.5373 Y32.3748
G01 X16.5341 Y32.3107
G01 X16.5373 Y32.2466
G01 X16.5467 Y32.1831
G01 X16.5623 Y32.1209
G01 X16.5839 Y32.0604
G01 X16.6113 Y32.0024
G01 X16.6443 Y31.9474
G01 X16.6826 Y31.8958
G01 X16.7257 Y31.8482
G01 X16.7732 Y31.8051
G01 X16.8248 Y31.7669
G01 X16.8798 Y31.7339
G01 X16.9378 Y31.7065
G01 X16.9983 Y31.6849
G01 X17.0605 Y31.6693
G01 X17.1240 Y31.6598
G01 X17.1881 Y31.6567
G01 X17.2522 Y31.6598
G01 X17.3157 Y31.6693
G01 X17.3779 Y31.6849
G01 X17.4384 Y31.7065
G01 X17.4964 Y31.7339
G01 X17.5514 Y31.7669
G01 X17.6030 Y31.8051
G01 X17.6505 Y31.8482
G01 X17.6936 Y31.8958
G01 X17.7319 Y31.9474
G01 X17.7649 Y32.0024
G01 X17.7923 Y32.0604
G01 X17.8139 Y32.1209
G01 X17.8295 Y32.1831
G01 X17.8390 Y32.2466
G01 X17.8420 Y32.3082
G00 Z2.0000
G00 X19.8420 Y32.3082
G01 F60.00
G01 Z0.0000
G01 F60.00
G01 X19.8390 Y32.3748
G01 X19.8295 Y32.4383
G01 X19.8139 Y32.5005
G01 X19.7923 Y32.5610
G01 X19.7649 Y32.6190
G01 X19.7319 Y32.6740
G01 X19.6936 Y32.7256
G01 X19.6505 Y32.7732
G01 X19.6030 Y32.8163
G01 X19.5514 Y32.8545
G01 X19.4964 Y32.8875
G01 X19.4384 Y32.9149
G01 X19.3779 Y32.9365
G01 X19.3157 Y32.9521
G01 X19.2522 Y32.9616
G01 X19.1881 Y32.9647
G01 X19.1240 Y32.9616
G01 X19.0605 Y32.9521
G01 X18.9983 Y32.9365
G01 X18.9378 Y32.9149
G01 X18.8798 Y32.8875
G01 X18.8248 Y32.8545
G01 X18.7732 Y32.8163
G01 X18.7257 Y32.7732
G01 X18.6826 Y32.7256
G01 X18.6443 Y32.6740
G01 X18.6113 Y32.6190
G01 X18.5839 Y32.5610
G01 X18.5623 Y32.5005
G01 X18.5467 Y32.4383
G01 X18.5373 Y32.3748
G01 X18.5341 Y32.3107
G01 X18.5373 Y32.2466
G01 X18.5467 Y32.1831
G01 X18.5623 Y32.1209
G01 X18.5839 Y32.0604
G01 X18.6113 Y32.0024
G01 X18.6443 Y31.9474
G01 X18.6826 Y31.8958
G01 X18.7257 Y31.8483
G01 X18.7732 Y31.8052
G01 X18.8248 Y31.7669
G01 X18.8798 Y31.7339
G01 X18.9378 Y31.7065
G01 X18.9983 Y31.6849
G01 X19.0605 Y31.6693
G01 X19.1240 Y31.6599
G01 X19.1881 Y31.6567
G01 X19.2522 Y31.6599
G01 X19.3157 Y31.6693
G01 X19.3779 Y31.6849
G01 X19.4384 Y31.7065
G01 X19.4964 Y31.7339
G01 X19.5514 Y31.7669
G01 X19.6030 Y31.8052
G01 X19.6505 Y31.8483
G01 X19.6936 Y31.8958
G01 X19.7319 Y31.9474
G01 X19.7649 Y32.0024
G01 X19.7923 Y32.0604
G01 X19.8139 Y32.1209
G01 X19.8295 Y32.1831
G01 X19.8390 Y32.2466
G01 X19.8420 Y32.3082
G00 Z2.0000
G00 X14.8274 Y41.6794
G01 F60.00
G01 Z0.0000
G01 F60.00
G01 X14.8273 Y37.9937
G01 X14.8300 Y37.9398
G01 X14.8375 Y37.8888
G01 X14.8510 Y37.8340
G01 X14.8692 Y37.7831
G01 X14.8923 Y37.7343
G01 X14.9201 Y37.6880
G01 X14.9523 Y37.6446
G01 X14.9885 Y37.6046
G01 X15.0285 Y37.5684
G01 X15.0719 Y37.5362
G01 X15.1182 Y37.5084
G01 X15.1670 Y37.4853
G01 X15.2179 Y37.4671
G01 X15.2703 Y37.4540
G01 X15.3237 Y37.4461
G01 X15.3776 Y37.4434
G01 X15.4315 Y37.4461
G01 X15.4825 Y37.4536
G01 X15.5397 Y37.4679
G01 X15.5882 Y37.4853
G01 X15.6370 Y37.5084
G01 X15.6833 Y37.5362
G01 X15.7247 Y37.5668
G01 X15.7684 Y37.6064
G01 X15.8029 Y37.6446
G01 X15.8351 Y37.6880
G01 X15.8629 Y37.7343
G01 X15.8850 Y37.7809
G01 X15.9048 Y37.8363
G01 X15.9173 Y37.8864
G01 X15.9251 Y37.9385
G01 X15.9279 Y37.9937
G01 X15.9279 Y41.4490
G01 X27.0338 Y52.5549
G01 X29.7681 Y52.5549
G01 X29.7682 Y51.1781
G01 X29.7711 Y51.1242
G01 X29.7787 Y51.0733
G01 X29.7912 Y51.0232
G01 X29.8100 Y50.9700
G01 X29.8326 Y50.9223
G01 X29.8609 Y50.8749
G01 X29.8931 Y50.8315
G01 X29.9285 Y50.7924
G01 X29.9431 Y50.7777
G01 X29.9851 Y50.7399
G01 X30.0265 Y50.7093
G01 X30.0707 Y50.6827
G01 X30.1194 Y50.6594
G01 X30.1725 Y50.6402
G01 X30.2237 Y50.6274
G01 X30.2783 Y50.6192
G01 X30.3322 Y50.6165
G01 X30.3861 Y50.6192
G01 X30.4419 Y50.6277
G01 X30.4919 Y50.6402
G01 X30.5405 Y50.6576
G01 X30.5894 Y50.6804
G01 X30.6379 Y50.7093
G01 X30.6813 Y50.7415
G01 X30.7213 Y50.7777
G01 X30.7575 Y50.8177
G01 X30.7897 Y50.8611
G01 X30.8186 Y50.9096
G01 X30.8414 Y50.9585
G01 X30.8588 Y51.0071
G01 X30.8713 Y51.0571
G01 X30.8798 Y51.1129
G01 X30.8824 Y51.1656
G01 X30.8797 Y51.2220
G01 X30.8721 Y51.2729
G01 X30.8687 Y51.2873
G01 X30.8686 Y53.1077
G01 X30.8660 Y53.1591
G01 X30.8585 Y53.2101
G01 X30.8450 Y53.2649
G01 X30.8268 Y53.3158
G01 X30.8048 Y53.3624
G01 X30.7745 Y53.4129
G01 X30.7421 Y53.4561
G01 X30.7075 Y53.4943
G01 X30.6693 Y53.5289
G01 X30.6241 Y53.5627
G01 X30.5778 Y53.5905
G01 X30.5290 Y53.6136
G01 X30.4758 Y53.6324
G01 X30.4257 Y53.6449
G01 X30.3748 Y53.6525
G01 X30.3196 Y53.6554
G01 X26.8046 Y53.6554
G01 X26.7519 Y53.6528
G01 X26.7009 Y53.6453
G01 X26.6461 Y53.6318
G01 X26.5952 Y53.6136
G01 X26.5486 Y53.5916
G01 X26.4981 Y53.5613
G01 X26.4567 Y53.5305
G01 X26.4167 Y53.4943
G01 X14.9885 Y42.0660
G01 X14.9523 Y42.0260
G01 X14.9201 Y41.9826
G01 X14.8923 Y41.9363
G01 X14.8692 Y41.8875
G01 X14.8510 Y41.8366
G01 X14.8379 Y41.7842
G01 X14.8300 Y41.7308
G01 X14.8274 Y41.6794
G00 Z2.0000
G00 X17.5783 Y56.5422
G01 F60.00
G01 Z0.0000
G01 F60.00
G01 X17.5647 Y56.8240
G01 X17.5236 Y57.1007
G01 X17.4557 Y57.3720
G01 X17.3615 Y57.6353
G01 X17.2419 Y57.8882
G01 X17.0981 Y58.1281
G01 X16.9315 Y58.3527
G01 X16.7437 Y58.5600
G01 X16.5364 Y58.7478
G01 X16.3118 Y58.9144
G01 X16.0719 Y59.0582
G01 X15.8190 Y59.1778
G01 X15.5557 Y59.2720
G01 X15.2844 Y59.3399
G01 X15.0077 Y59.3810
G01 X14.7284 Y59.3947
G01 X14.4491 Y59.3810
G01 X14.1724 Y59.3399
G01 X13.9011 Y59.2720
G01 X13.6378 Y59.1778
G01 X13.3849 Y59.0582
G01 X13.1450 Y58.9144
G01 X12.9204 Y58.7478
G01 X12.7131 Y58.5600
G01 X12.5253 Y58.3527
G01 X12.3587 Y58.1281
G01 X12.2149 Y57.8882
G01 X12.0953 Y57.6353
G01 X12.0011 Y57.3720
G01 X11.9332 Y57.1007
G01 X11.8921 Y56.8240
G01 X11.8784 Y56.5447
G01 X11.8921 Y56.2654
G01 X11.9332 Y55.9887
G01 X12.0011 Y55.7174
G01 X12.0953 Y55.4541
G01 X12.2149 Y55.2012
G01 X12.3587 Y54.9613
G01 X12.5253 Y54.7367
G01 X12.7131 Y54.5294
G01 X12.9204 Y54.3416
G01 X13.1450 Y54.1750
G01 X13.3849 Y54.0312
G01 X13.6378 Y53.9116
G01 X13.9011 Y53.8174
G01 X14.1724 Y53.7495
G01 X14.4491 Y53.7084
G01 X14.7284 Y53.6947
G01 X15.0077 Y53.7084
G01 X15.2844 Y53.7495
G01 X15.5557 Y53.8174
G01 X15.8190 Y53.9116
G01 X16.0719 Y54.0312
G01 X16.3118 Y54.1750
G01 X16.5364 Y54.3416
G01 X16.7437 Y54.5294
G01 X16.9315 Y54.7367
G01 X17.0981 Y54.9613
G01 X17.2419 Y55.2012
G01 X17.3615 Y55.4541
G01 X17.4557 Y55.7174
G01 X17.5236 Y55.9887
G01 X17.5647 Y56.2654
G01 X17.5783 Y56.5422
G00 Z2.0000
G00 X11.5020 Y56.9714
G01 F60.00
G01 Z0.0000
G01 F60.00
G01 X11.5020 Y56.1176
G01 X11.7216 Y55.3003
G01 X12.1470 Y54.5637
G01 X12.7477 Y53.9630
G01 X13.4843 Y53.5376
G01 X14.3016 Y53.3190
G01 X15.1554 Y53.3190
G01 X15.9727 Y53.5376
G01 X16.7093 Y53.9630
G01 X17.3100 Y54.5637
G01 X17.7354 Y55.3003
G01 X17.9540 Y56.1176
G01 X17.9540 Y56.9714
G01 X17.7354 Y57.7887
G01 X17.3100 Y58.5253
G01 X16.7093 Y59.1260
G01 X15.9730 Y59.5518
G01 X15.1554 Y59.7710
G01 X14.3016 Y59.7710
G01 X13.4840 Y59.5518
G01 X12.7477 Y59.1260
G01 X12.1470 Y58.5253
G01 X11.7216 Y57.7887
G01 X11.5020 Y56.9714
G00 Z2.0000
G00 X1.0000 Y60.6500
G01 F60.00
G01 Z0.0000
G01 F60.00
G01 X0.9902 Y60.6490
G01 X0.9809 Y60.6462
G01 X0.9722 Y60.6416
G01 X0.9646 Y60.6354
G01 X0.9584 Y60.6278
G01 X0.9538 Y60.6191
G01 X0.9510 Y60.6098
G01 X0.9500 Y60.6000
G01 X0.9500 Y1.4000
G01 X0.9510 Y1.3902
G01 X0.9538 Y1.3809
G01 X0.9578 Y1.3733
G01 X0.9638 Y1.3655
G01 X0.9712 Y1.3591
G01 X0.9764 Y1.3559
G01 X0.9809 Y1.3538
G01 X0.9902 Y1.3510
G01 X1.0000 Y1.3500
G01 X58.2000 Y1.3500
G01 X58.2098 Y1.3510
G01 X58.2191 Y1.3538
G01 X58.2278 Y1.3584
G01 X58.2345 Y1.3638
G01 X58.2409 Y1.3712
G01 X58.2457 Y1.3797
G01 X58.2478 Y1.3855
G01 X58.2490 Y1.3902
G01 X58.2500 Y1.4000
G01 X58.2500 Y60.6000
G01 X58.2490 Y60.6098
G01 X58.2462 Y60.6191
G01 X58.2416 Y60.6278
G01 X58.2362 Y60.6345
G01 X58.2288 Y60.6409
G01 X58.2203 Y60.6457
G01 X58.2145 Y60.6478
G01 X58.2098 Y60.6490
G01 X58.2000 Y60.6500
G01 X1.0000 Y60.6500
G00 Z2.0000
G00 X32.4062 Y52.1963
G01 F60.00
G01 Z0.0000
G01 F60.00
G01 X32.4137 Y52.0522
G01 X32.4423 Y51.9035
G01 X32.4945 Y51.7631
G01 X32.5686 Y51.6321
G01 X32.6683 Y51.5074
G01 X35.2393 Y48.9374
G01 X35.2529 Y48.9221
G01 X35.2635 Y48.9132
G01 X35.2853 Y48.8914
G01 X35.3211 Y48.8595
G01 X35.3523 Y48.8322
G01 X35.3608 Y48.8252
G01 X35.3740 Y48.8163
G01 X35.3819 Y48.8097
G01 X35.3872 Y48.8045
G01 X35.4321 Y48.7770
G01 X35.4818 Y48.7433
G01 X35.4975 Y48.7367
G01 X35.5093 Y48.7294
G01 X35.5814 Y48.6991
G01 X35.6166 Y48.6829
G01 X35.6217 Y48.6815
G01 X35.6350 Y48.6767
G01 X35.6487 Y48.6704
G01 X35.7381 Y48.6485
G01 X35.7620 Y48.6415
G01 X35.7755 Y48.6403
G01 X35.7913 Y48.6365
G01 X35.9355 Y48.6241
G01 X35.9540 Y48.6250
G01 X40.2960 Y48.6250
G01 X40.3009 Y48.6248
G01 X40.3070 Y48.6238
G01 X40.3128 Y48.6221
G01 X40.3185 Y48.6197
G01 X40.3238 Y48.6166
G01 X40.3277 Y48.6137
G01 X40.3314 Y48.6104
G01 X40.3354 Y48.6058
G01 X40.3401 Y48.5986
G01 X40.3431 Y48.5918
G01 X40.3453 Y48.5835
G01 X40.3460 Y48.5750
G01 X40.3460 Y46.0230
G01 X40.3457 Y46.0178
G01 X40.3432 Y45.9984
G01 X40.3527 Y45.8519
G01 X40.3555 Y45.8377
G01 X40.3566 Y45.8215
G01 X40.3741 Y45.7394
G01 X40.3793 Y45.7092
G01 X40.3858 Y45.6898
G01 X40.3889 Y45.6823
G01 X40.3903 Y45.6778
G01 X40.4046 Y45.6421
G01 X40.4344 Y45.5651
G01 X40.4401 Y45.5546
G01 X40.4448 Y45.5436
G01 X40.4674 Y45.5058
G01 X40.5059 Y45.4385
G01 X40.5217 Y45.4170
G01 X40.5283 Y45.4101
G01 X40.5829 Y45.3424
G01 X40.5864 Y45.3374
G01 X40.5890 Y45.3328
G01 X40.6031 Y45.3156
G01 X41.6264 Y44.2934
G01 X42.5544 Y43.3654
G01 X42.5599 Y43.3588
G01 X42.5637 Y43.3525
G01 X42.5665 Y43.3457
G01 X42.5685 Y43.3373
G01 X42.5690 Y43.3300
G01 X42.5690 Y40.9060
G01 X42.5686 Y40.8999
G01 X42.5678 Y40.8951
G01 X42.5657 Y40.8880
G01 X42.5631 Y40.8824
G01 X42.5592 Y40.8762
G01 X42.5544 Y40.8707
G01 X41.8418 Y40.1571
G01 X41.7635 Y40.0644
G01 X41.6806 Y39.9320
G01 X41.6247 Y39.7984
G01 X41.5905 Y39.6550
G01 X41.5781 Y39.5105
G01 X41.5875 Y39.3651
G01 X41.6189 Y39.2190
G01 X41.6750 Y39.0831
G01 X41.7143 Y39.0150
G01 X41.7456 Y38.9598
G01 X41.8413 Y38.8427
G01 X41.9333 Y38.7603
G01 X41.9546 Y38.7408
G01 X42.0759 Y38.6631
G01 X42.2064 Y38.6044
G01 X42.3497 Y38.5667
G01 X42.3578 Y38.5650
G01 X42.4966 Y38.5481
G01 X42.6458 Y38.5567
G01 X42.7885 Y38.5843
G01 X42.9289 Y38.6365
G01 X43.0599 Y38.7106
G01 X43.1846 Y38.8103
G01 X44.1576 Y39.7843
G01 X44.1709 Y39.7958
G01 X44.1849 Y39.8116
G01 X44.2065 Y39.8332
G01 X44.2342 Y39.8647
G01 X44.2700 Y39.9066
G01 X44.2775 Y39.9177
G01 X44.2895 Y39.9312
G01 X44.3170 Y39.9761
G01 X44.3508 Y40.0260
G01 X44.3584 Y40.0436
G01 X44.3647 Y40.0537
G01 X44.3882 Y40.1100
G01 X44.4116 Y40.1617
G01 X44.4143 Y40.1708
G01 X44.4234 Y40.1920
G01 X44.4455 Y40.2821
G01 X44.4525 Y40.3060
G01 X44.4537 Y40.3195
G01 X44.4575 Y40.3352
G01 X44.4699 Y40.4796
G01 X44.4690 Y40.4950
G01 X44.4690 Y43.7630
G01 X44.4652 Y43.8121
G01 X44.4632 Y43.8588
G01 X44.4605 Y43.8753
G01 X44.4586 Y43.8928
G01 X44.4460 Y43.9482
G01 X44.4347 Y44.0047
G01 X44.4291 Y44.0206
G01 X44.4253 Y44.0355
G01 X44.3996 Y44.0993
G01 X44.3828 Y44.1442
G01 X44.3768 Y44.1545
G01 X44.3700 Y44.1719
G01 X44.3342 Y44.2312
G01 X44.3082 Y44.2765
G01 X44.2992 Y44.2871
G01 X44.2924 Y44.2988
G01 X44.1990 Y44.4110
G01 X44.1746 Y44.4327
G01 X42.2606 Y46.3477
G01 X42.2544 Y46.3552
G01 X42.2513 Y46.3605
G01 X42.2493 Y46.3650
G01 X42.2467 Y46.3745
G01 X42.2460 Y46.3830
G01 X42.2460 Y49.5230
G01 X42.2468 Y49.5323
G01 X42.2460 Y49.5450
G01 X42.2468 Y49.5539
G01 X42.2460 Y49.5698
G01 X42.2460 Y49.5917
G01 X42.2431 Y49.6234
G01 X42.2411 Y49.6841
G01 X42.2402 Y49.6906
G01 X42.2393 Y49.7041
G01 X42.2220 Y49.7820
G01 X42.2129 Y49.8283
G01 X42.2081 Y49.8406
G01 X42.2044 Y49.8542
G01 X42.2020 Y49.8653
G01 X42.1802 Y49.9193
G01 X42.1627 Y49.9688
G01 X42.1583 Y49.9777
G01 X42.1559 Y49.9843
G01 X42.1510 Y49.9922
G01 X42.1457 Y50.0035
G01 X42.1256 Y50.0364
G01 X42.1163 Y50.0510
G01 X42.0914 Y50.0966
G01 X42.0853 Y50.1053
G01 X42.0827 Y50.1099
G01 X42.0725 Y50.1226
G01 X42.0689 Y50.1284
G01 X42.0426 Y50.1602
G01 X42.0054 Y50.2089
G01 X41.9997 Y50.2149
G01 X41.9893 Y50.2278
G01 X41.9758 Y50.2405
G01 X41.9451 Y50.2674
G01 X41.9311 Y50.2803
G01 X41.8974 Y50.3129
G01 X41.8833 Y50.3226
G01 X41.8781 Y50.3271
G01 X41.8724 Y50.3313
G01 X41.8642 Y50.3382
G01 X41.8125 Y50.3703
G01 X41.7737 Y50.3975
G01 X41.7650 Y50.4023
G01 X41.7581 Y50.4070
G01 X41.7448 Y50.4142
G01 X41.6886 Y50.4388
G01 X41.6428 Y50.4622
G01 X41.6260 Y50.4670
G01 X41.6061 Y50.4758
G01 X41.5470 Y50.4917
G01 X41.5031 Y50.5045
G01 X41.4895 Y50.5057
G01 X41.4752 Y50.5094
G01 X41.4646 Y50.5115
G01 X41.4058 Y50.5174
G01 X41.3658 Y50.5234
G01 X41.3595 Y50.5240
G01 X41.3435 Y50.5241
G01 X41.3235 Y50.5260
G01 X41.2970 Y50.5250
G01 X36.3620 Y50.5250
G01 X36.3535 Y50.5257
G01 X36.3463 Y50.5275
G01 X36.3406 Y50.5298
G01 X36.3353 Y50.5328
G01 X36.3303 Y50.5363
G01 X36.3267 Y50.5396
G01 X34.0151 Y52.8502
G01 X33.9236 Y52.9276
G01 X33.9171 Y52.9323
G01 X33.7914 Y53.0107
G01 X33.6564 Y53.0673
G01 X33.5130 Y53.1015
G01 X33.3685 Y53.1139
G01 X33.2212 Y53.1044
G01 X33.1763 Y53.0941
G01 X33.0769 Y53.0730
G01 X32.9411 Y53.0170
G01 X32.8730 Y52.9777
G01 X32.8178 Y52.9464
G01 X32.7007 Y52.8507
G01 X32.6183 Y52.7587
G01 X32.5988 Y52.7374
G01 X32.5211 Y52.6162
G01 X32.4633 Y52.4873
G01 X32.4232 Y52.3355
G01 X32.4062 Y52.1963
G00 Z2.0000
G00 X32.9671 Y51.7753
G01 F60.00
G01 Z0.0000
G01 F60.00
G01 X35.5570 Y49.1853
G01 X35.5961 Y49.1499
G01 X35.6416 Y49.1164
G01 X35.6880 Y49.0888
G01 X35.7346 Y49.0668
G01 X35.7831 Y49.0494
G01 X35.8403 Y49.0351
G01 X35.8913 Y49.0276
G01 X35.9452 Y49.0249
G01 X40.7457 Y49.0249
G01 X40.7458 Y45.9676
G01 X40.7484 Y45.9149
G01 X40.7563 Y45.8615
G01 X40.7694 Y45.8091
G01 X40.7876 Y45.7582
G01 X40.8107 Y45.7094
G01 X40.8385 Y45.6631
G01 X40.8707 Y45.6197
G01 X40.9061 Y45.5806
G01 X42.9687 Y43.5179
G01 X42.9687 Y40.7181
G01 X42.1392 Y39.8886
G01 X42.1030 Y39.8486
G01 X42.0708 Y39.8052
G01 X42.0442 Y39.7610
G01 X42.0191 Y39.7078
G01 X42.0017 Y39.6592
G01 X41.9886 Y39.6068
G01 X41.9807 Y39.5534
G01 X41.9781 Y39.5007
G01 X41.9810 Y39.4431
G01 X41.9886 Y39.3922
G01 X42.0017 Y39.3398
G01 X42.0209 Y39.2867
G01 X42.0430 Y39.2401
G01 X42.0695 Y39.1959
G01 X42.1046 Y39.1486
G01 X42.1392 Y39.1104
G01 X42.1774 Y39.0758
G01 X42.2226 Y39.0420
G01 X42.2711 Y39.0131
G01 X42.3177 Y38.9911
G01 X42.3662 Y38.9737
G01 X42.4210 Y38.9598
G01 X42.4744 Y38.9519
G01 X42.5258 Y38.9493
G01 X42.5822 Y38.9519
G01 X42.6380 Y38.9604
G01 X42.6880 Y38.9729
G01 X42.7389 Y38.9911
G01 X42.7898 Y39.0154
G01 X42.8340 Y39.0420
G01 X42.8764 Y39.0734
G01 X42.9174 Y39.1104
G01 X43.9099 Y40.1030
G01 X43.9460 Y40.1432
G01 X43.9766 Y40.1846
G01 X44.0032 Y40.2288
G01 X44.0275 Y40.2797
G01 X44.0463 Y40.3329
G01 X44.0588 Y40.3830
G01 X44.0664 Y40.4339
G01 X44.0694 Y40.4903
G01 X44.0693 Y43.7458
G01 X44.0666 Y43.7997
G01 X44.0587 Y43.8531
G01 X44.0462 Y43.9032
G01 X44.0264 Y43.9586
G01 X44.0043 Y44.0052
G01 X43.9765 Y44.0515
G01 X43.9443 Y44.0949
G01 X43.9098 Y44.1331
G01 X41.8463 Y46.1967
G01 X41.8463 Y49.5569
G01 X41.8470 Y49.5756
G01 X41.8444 Y49.6283
G01 X41.8365 Y49.6817
G01 X41.8234 Y49.7341
G01 X41.8060 Y49.7827
G01 X41.7809 Y49.8359
G01 X41.7543 Y49.8801
G01 X41.7229 Y49.9225
G01 X41.6859 Y49.9635
G01 X41.6451 Y50.0005
G01 X41.6017 Y50.0327
G01 X41.5532 Y50.0616
G01 X41.5043 Y50.0844
G01 X41.4557 Y50.1018
G01 X41.4057 Y50.1143
G01 X41.3499 Y50.1228
G01 X41.2972 Y50.1254
G01 X36.1732 Y50.1255
G01 X33.7461 Y52.5525
G01 X33.7070 Y52.5879
G01 X33.6656 Y52.6187
G01 X33.6173 Y52.6479
G01 X33.5662 Y52.6718
G01 X33.5176 Y52.6892
G01 X33.4652 Y52.7023
G01 X33.4118 Y52.7102
G01 X33.3604 Y52.7128
G01 X33.3015 Y52.7099
G01 X33.2506 Y52.7023
G01 X33.1982 Y52.6892
G01 X33.1473 Y52.6710
G01 X33.1007 Y52.6490
G01 X33.0502 Y52.6187
G01 X33.0088 Y52.5879
G01 X32.9688 Y52.5517
G01 X32.9310 Y52.5097
G01 X32.9004 Y52.4683
G01 X32.8726 Y52.4220
G01 X32.8487 Y52.3709
G01 X32.8313 Y52.3223
G01 X32.8182 Y52.2699
G01 X32.8103 Y52.2165
G01 X32.8077 Y52.1651
G01 X32.8106 Y52.1062
G01 X32.8182 Y52.0553
G01 X32.8313 Y52.0029
G01 X32.8495 Y51.9520
G01 X32.8715 Y51.9054
G01 X32.9018 Y51.8549
G01 X32.9326 Y51.8135
G01 X32.9671 Y51.7753
G00 Z2.0000
G00 X33.6112 Y36.7933
G01 F60.00
G01 Z0.0000
G01 F60.00
G01 X33.6187 Y36.6492
G01 X33.6472 Y36.5012
G01 X33.6995 Y36.3602
G01 X33.7675 Y36.2407
G01 X33.7739 Y36.2286
G01 X33.8733 Y36.1044
G01 X44.0444 Y25.9344
G01 X44.0506 Y25.9268
G01 X44.0542 Y25.9204
G01 X44.0568 Y25.9135
G01 X44.0585 Y25.9063
G01 X44.0590 Y25.8990
G01 X44.0590 Y21.3510
G01 X44.0695 Y21.2209
G01 X44.0848 Y21.1568
G01 X44.1029 Y21.0749
G01 X44.1549 Y20.9474
G01 X44.2348 Y20.8161
G01 X44.3290 Y20.7030
G01 X44.4421 Y20.6031
G01 X44.5650 Y20.5256
G01 X44.6960 Y20.4708
G01 X44.7007 Y20.4695
G01 X44.7058 Y20.4674
G01 X44.8309 Y20.4339
G01 X44.8365 Y20.4333
G01 X44.8418 Y20.4320
G01 X44.9873 Y20.4170
G01 X45.1382 Y20.4247
G01 X45.2817 Y20.4570
G01 X45.4171 Y20.5077
G01 X45.5458 Y20.5824
G01 X45.7499 Y20.7440
G01 X45.7553 Y20.7470
G01 X45.7610 Y20.7494
G01 X45.7669 Y20.7510
G01 X45.7730 Y20.7518
G01 X45.7791 Y20.7520
G01 X45.7852 Y20.7513
G01 X45.7912 Y20.7499
G01 X45.7958 Y20.7483
G01 X45.8045 Y20.7437
G01 X45.8085 Y20.7408
G01 X45.8130 Y20.7367
G01 X45.8162 Y20.7330
G01 X45.8197 Y20.7279
G01 X45.8226 Y20.7225
G01 X45.8244 Y20.7179
G01 X45.8427 Y20.6392
G01 X45.8436 Y20.6343
G01 X45.8440 Y20.6290
G01 X45.8568 Y20.5758
G01 X45.8769 Y20.4849
G01 X45.9289 Y20.3574
G01 X46.0088 Y20.2261
G01 X46.1030 Y20.1129
G01 X46.2160 Y20.0132
G01 X46.3370 Y19.9375
G01 X46.4733 Y19.8774
G01 X46.6156 Y19.8414
G01 X46.7609 Y19.8271
G01 X46.9122 Y19.8347
G01 X47.0557 Y19.8670
G01 X47.1911 Y19.9177
G01 X47.3197 Y19.9924
G01 X47.4356 Y20.0845
G01 X47.5335 Y20.1938
G01 X47.6162 Y20.3165
G01 X47.6768 Y20.4500
G01 X47.7157 Y20.5922
G01 X47.7168 Y20.5972
G01 X47.7330 Y20.7556
G01 X47.7330 Y26.9920
G01 X47.7332 Y26.9970
G01 X47.7348 Y27.0097
G01 X47.7330 Y27.0426
G01 X47.7330 Y27.0572
G01 X47.7260 Y27.1624
G01 X47.7236 Y27.1816
G01 X47.7082 Y27.2512
G01 X47.6979 Y27.3027
G01 X47.6924 Y27.3166
G01 X47.6887 Y27.3309
G01 X47.6674 Y27.3829
G01 X47.6463 Y27.4404
G01 X47.6400 Y27.4523
G01 X47.6344 Y27.4653
G01 X47.6047 Y27.5150
G01 X47.5720 Y27.5717
G01 X47.5593 Y27.5893
G01 X47.5171 Y27.6396
G01 X47.4751 Y27.6916
G01 X47.4713 Y27.6970
G01 X37.7481 Y37.4182
G01 X37.6566 Y37.4956
G01 X37.6501 Y37.5003
G01 X37.5244 Y37.5787
G01 X37.3893 Y37.6353
G01 X37.2460 Y37.6695
G01 X37.1015 Y37.6819
G01 X36.9542 Y37.6724
G01 X36.8100 Y37.6411
G01 X36.6742 Y37.5851
G01 X36.6236 Y37.5555
G01 X36.5507 Y37.5144
G01 X36.4337 Y37.4188
G01 X36.3319 Y37.3055
G01 X36.2541 Y37.1842
G01 X36.1964 Y37.0556
G01 X36.1942 Y37.0489
G01 X36.1567 Y36.9067
G01 X36.1266 Y36.6551
G01 X36.1245 Y36.6455
G01 X36.1212 Y36.6376
G01 X36.1173 Y36.6313
G01 X36.1116 Y36.6249
G01 X36.1049 Y36.6195
G01 X36.0974 Y36.6153
G01 X36.0892 Y36.6125
G01 X36.0808 Y36.6111
G01 X36.0734 Y36.6111
G01 X36.0649 Y36.6125
G01 X36.0568 Y36.6153
G01 X36.0492 Y36.6194
G01 X36.0425 Y36.6248
G01 X35.2201 Y37.4472
G01 X35.1286 Y37.5246
G01 X35.1221 Y37.5293
G01 X34.9964 Y37.6077
G01 X34.8614 Y37.6643
G01 X34.7180 Y37.6985
G01 X34.5735 Y37.7109
G01 X34.4262 Y37.7014
G01 X34.3813 Y37.6911
G01 X34.2819 Y37.6700
G01 X34.1461 Y37.6140
G01 X34.0780 Y37.5747
G01 X34.0228 Y37.5434
G01 X33.9057 Y37.4477
G01 X33.8038 Y37.3345
G01 X33.7261 Y37.2132
G01 X33.6684 Y37.0846
G01 X33.6662 Y37.0779
G01 X33.6284 Y36.9340
G01 X33.6112 Y36.7933
G00 Z2.0000
G00 X34.1727 Y36.3725
G01 F60.00
G01 Z0.0000
G01 F60.00
G01 X44.4589 Y26.0862
G01 X44.4589 Y21.3689
G01 X44.4616 Y21.3150
G01 X44.4693 Y21.2628
G01 X44.4826 Y21.2092
G01 X44.5018 Y21.1561
G01 X44.5239 Y21.1095
G01 X44.5504 Y21.0653
G01 X44.5839 Y21.0198
G01 X44.6201 Y20.9798
G01 X44.6621 Y20.9420
G01 X44.7035 Y20.9114
G01 X44.7477 Y20.8848
G01 X44.7986 Y20.8605
G01 X44.8518 Y20.8417
G01 X44.9019 Y20.8292
G01 X44.9528 Y20.8216
G01 X45.0092 Y20.8186
G01 X45.0631 Y20.8213
G01 X45.1189 Y20.8298
G01 X45.1689 Y20.8423
G01 X45.2175 Y20.8597
G01 X45.2686 Y20.8836
G01 X45.3159 Y20.9121
G01 X45.3601 Y20.9452
G01 X45.3983 Y20.9798
G01 X45.4329 Y21.0180
G01 X45.4667 Y21.0632
G01 X45.4945 Y21.1095
G01 X45.5176 Y21.1583
G01 X45.5364 Y21.2115
G01 X45.5489 Y21.2616
G01 X45.5565 Y21.3125
G01 X45.5594 Y21.3677
G01 X45.5594 Y26.3153
G01 X45.5568 Y26.3680
G01 X45.5493 Y26.4190
G01 X45.5358 Y26.4738
G01 X45.5176 Y26.5247
G01 X45.4956 Y26.5713
G01 X45.4660 Y26.6208
G01 X45.4345 Y26.6632
G01 X45.3983 Y26.7032
G01 X34.9526 Y37.1489
G01 X34.9135 Y37.1844
G01 X34.8692 Y37.2173
G01 X34.8229 Y37.2451
G01 X34.7741 Y37.2682
G01 X34.7232 Y37.2864
G01 X34.6708 Y37.2995
G01 X34.6174 Y37.3074
G01 X34.5635 Y37.3101
G01 X34.5120 Y37.3076
G01 X34.4562 Y37.2995
G01 X34.4038 Y37.2864
G01 X34.3529 Y37.2682
G01 X34.3063 Y37.2462
G01 X34.2578 Y37.2173
G01 X34.2164 Y37.1867
G01 X34.1727 Y37.1471
G01 X34.1382 Y37.1089
G01 X34.1060 Y37.0655
G01 X34.0782 Y37.0192
G01 X34.0551 Y36.9704
G01 X34.0369 Y36.9195
G01 X34.0238 Y36.8671
G01 X34.0159 Y36.8137
G01 X34.0132 Y36.7598
G01 X34.0159 Y36.7059
G01 X34.0238 Y36.6525
G01 X34.0369 Y36.6001
G01 X34.0551 Y36.5492
G01 X34.0782 Y36.5004
G01 X34.1060 Y36.4541
G01 X34.1382 Y36.4107
G01 X34.1727 Y36.3725
G00 Z2.0000
G00 X36.7008 Y36.3439
G01 F60.00
G01 Z0.0000
G01 F60.00
G01 X46.2326 Y26.8120
G01 X46.2326 Y20.7783
G01 X46.2354 Y20.7231
G01 X46.2438 Y20.6686
G01 X46.2563 Y20.6186
G01 X46.2737 Y20.5700
G01 X46.2976 Y20.5189
G01 X46.3254 Y20.4726
G01 X46.3592 Y20.4274
G01 X46.3938 Y20.3892
G01 X46.4320 Y20.3546
G01 X46.4772 Y20.3208
G01 X46.5257 Y20.2919
G01 X46.5723 Y20.2699
G01 X46.6208 Y20.2525
G01 X46.6756 Y20.2386
G01 X46.7314 Y20.2305
G01 X46.7829 Y20.2280
G01 X46.8344 Y20.2305
G01 X46.8902 Y20.2386
G01 X46.9450 Y20.2525
G01 X46.9935 Y20.2699
G01 X47.0401 Y20.2919
G01 X47.0876 Y20.3201
G01 X47.1320 Y20.3530
G01 X47.1737 Y20.3910
G01 X47.2082 Y20.4292
G01 X47.2390 Y20.4706
G01 X47.2682 Y20.5189
G01 X47.2913 Y20.5677
G01 X47.3101 Y20.6209
G01 X47.3226 Y20.6710
G01 X47.3302 Y20.7219
G01 X47.3331 Y20.7771
G01 X47.3332 Y27.0410
G01 X47.3306 Y27.0937
G01 X47.3231 Y27.1447
G01 X47.3096 Y27.1995
G01 X47.2904 Y27.2526
G01 X47.2683 Y27.2992
G01 X47.2412 Y27.3445
G01 X47.2083 Y27.3889
G01 X47.1721 Y27.4289
G01 X37.4807 Y37.1203
G01 X37.4416 Y37.1558
G01 X37.3973 Y37.1887
G01 X37.3510 Y37.2165
G01 X37.3022 Y37.2396
G01 X37.2513 Y37.2578
G01 X37.1989 Y37.2709
G01 X37.1455 Y37.2788
G01 X37.0916 Y37.2815
G01 X37.0401 Y37.2790
G01 X36.9843 Y37.2709
G01 X36.9319 Y37.2578
G01 X36.8810 Y37.2396
G01 X36.8344 Y37.2176
G01 X36.7859 Y37.1887
G01 X36.7445 Y37.1581
G01 X36.7008 Y37.1185
G01 X36.6663 Y37.0803
G01 X36.6341 Y37.0369
G01 X36.6063 Y36.9906
G01 X36.5832 Y36.9418
G01 X36.5650 Y36.8909
G01 X36.5519 Y36.8385
G01 X36.5440 Y36.7851
G01 X36.5413 Y36.7312
G01 X36.5440 Y36.6773
G01 X36.5519 Y36.6239
G01 X36.5650 Y36.5715
G01 X36.5832 Y36.5206
G01 X36.6063 Y36.4718
G01 X36.6341 Y36.4255
G01 X36.6663 Y36.3821
G01 X36.7008 Y36.3439
G00 Z2.0000
G00 X50.0820 Y47.5044
G01 F60.00
G01 Z0.0000
G01 F60.00
G01 X50.0820 Y46.6506
G01 X50.3016 Y45.8333
G01 X50.7270 Y45.0967
G01 X51.3277 Y44.4960
G01 X52.0643 Y44.0706
G01 X52.8816 Y43.8510
G01 X53.7354 Y43.8510
G01 X54.5527 Y44.0706
G01 X55.2893 Y44.4960
G01 X55.8900 Y45.0967
G01 X56.3154 Y45.8333
G01 X56.5340 Y46.6506
G01 X56.5340 Y47.5044
G01 X56.3154 Y48.3217
G01 X55.8900 Y49.0583
G01 X55.2893 Y49.6590
G01 X54.5527 Y50.0844
G01 X53.7354 Y50.3040
G01 X52.8816 Y50.3040
G01 X52.0643 Y50.0844
G01 X51.3277 Y49.6590
G01 X50.7270 Y49.0583
G01 X50.3016 Y48.3217
G01 X50.0820 Y47.5044
G00 Z2.0000
G00 X56.1583 Y47.0750
G01 F60.00
G01 Z0.0000
G01 F60.00
G01 X56.1447 Y47.3568
G01 X56.1036 Y47.6335
G01 X56.0357 Y47.9048
G01 X55.9415 Y48.1681
G01 X55.8219 Y48.4210
G01 X55.6781 Y48.6609
G01 X55.5115 Y48.8855
G01 X55.3237 Y49.0928
G01 X55.1164 Y49.2806
G01 X54.8918 Y49.4472
G01 X54.6519 Y49.5910
G01 X54.3990 Y49.7106
G01 X54.1357 Y49.8048
G01 X53.8644 Y49.8727
G01 X53.5877 Y49.9138
G01 X53.3084 Y49.9275
G01 X53.0291 Y49.9138
G01 X52.7524 Y49.8727
G01 X52.4811 Y49.8048
G01 X52.2178 Y49.7106
G01 X51.9649 Y49.5910
G01 X51.7250 Y49.4472
G01 X51.5004 Y49.2806
G01 X51.2931 Y49.0928
G01 X51.1053 Y48.8855
G01 X50.9387 Y48.6609
G01 X50.7949 Y48.4210
G01 X50.6753 Y48.1681
G01 X50.5811 Y47.9048
G01 X50.5132 Y47.6335
G01 X50.4721 Y47.3568
G01 X50.4584 Y47.0775
G01 X50.4721 Y46.7982
G01 X50.5132 Y46.5215
G01 X50.5811 Y46.2502
G01 X50.6753 Y45.9869
G01 X50.7949 Y45.7340
G01 X50.9387 Y45.4941
G01 X51.1053 Y45.2695
G01 X51.2931 Y45.0622
G01 X51.5004 Y44.8744
G01 X51.7250 Y44.7078
G01 X51.9649 Y44.5640
G01 X52.2178 Y44.4444
G01 X52.4811 Y44.3502
G01 X52.7524 Y44.2823
G01 X53.0291 Y44.2412
G01 X53.3084 Y44.2275
G01 X53.5877 Y44.2412
G01 X53.8644 Y44.2823
G01 X54.1357 Y44.3502
G01 X54.3990 Y44.4444
G01 X54.6519 Y44.5640
G01 X54.8918 Y44.7078
G01 X55.1164 Y44.8744
G01 X55.3237 Y45.0622
G01 X55.5115 Y45.2695
G01 X55.6781 Y45.4941
G01 X55.8219 Y45.7340
G01 X55.9415 Y45.9869
G01 X56.0357 Y46.2502
G01 X56.1036 Y46.5215
G01 X56.1447 Y46.7982
G01 X56.1583 Y47.0750
G00 Z2.0000
G00 X56.1583 Y6.4968
G01 F60.00
G01 Z0.0000
G01 F60.00
G01 X56.1447 Y6.7786
G01 X56.1036 Y7.0553
G01 X56.0357 Y7.3266
G01 X55.9415 Y7.5899
G01 X55.8219 Y7.8428
G01 X55.6781 Y8.0827
G01 X55.5115 Y8.3073
G01 X55.3237 Y8.5146
G01 X55.1164 Y8.7024
G01 X54.8918 Y8.8690
G01 X54.6519 Y9.0128
G01 X54.3990 Y9.1324
G01 X54.1357 Y9.2266
G01 X53.8644 Y9.2945
G01 X53.5877 Y9.3356
G01 X53.3084 Y9.3493
G01 X53.0291 Y9.3356
G01 X52.7524 Y9.2945
G01 X52.4811 Y9.2266
G01 X52.2178 Y9.1324
G01 X51.9649 Y9.0128
G01 X51.7250 Y8.8690
G01 X51.5004 Y8.7024
G01 X51.2931 Y8.5146
G01 X51.1053 Y8.3073
G01 X50.9387 Y8.0827
G01 X50.7949 Y7.8428
G01 X50.6753 Y7.5899
G01 X50.5811 Y7.3266
G01 X50.5132 Y7.0553
G01 X50.4721 Y6.7786
G01 X50.4584 Y6.4993
G01 X50.4721 Y6.2200
G01 X50.5132 Y5.9433
G01 X50.5811 Y5.6720
G01 X50.6753 Y5.4087
G01 X50.7949 Y5.1558
G01 X50.9387 Y4.9159
G01 X51.1053 Y4.6913
G01 X51.2931 Y4.4840
G01 X51.5004 Y4.2962
G01 X51.7250 Y4.1296
G01 X51.9649 Y3.9858
G01 X52.2178 Y3.8662
G01 X52.4811 Y3.7720
G01 X52.7524 Y3.7041
G01 X53.0291 Y3.6630
G01 X53.3084 Y3.6493
G01 X53.5877 Y3.6630
G01 X53.8644 Y3.7041
G01 X54.1357 Y3.7720
G01 X54.3990 Y3.8662
G01 X54.6519 Y3.9858
G01 X54.8918 Y4.1296
G01 X55.1164 Y4.2962
G01 X55.3237 Y4.4840
G01 X55.5115 Y4.6913
G01 X55.6781 Y4.9159
G01 X55.8219 Y5.1558
G01 X55.9415 Y5.4087
G01 X56.0357 Y5.6720
G01 X56.1036 Y5.9433
G01 X56.1447 Y6.2200
G01 X56.1583 Y6.4968
G00 Z2.0000
G00 X50.0820 Y6.9264
G01 F60.00
G01 Z0.0000
G01 F60.00
G01 X50.0820 Y6.0726
G01 X50.3012 Y5.2567
G01 X50.7270 Y4.5187
G01 X51.3277 Y3.9180
G01 X52.0640 Y3.4922
G01 X52.8816 Y3.2730
G01 X53.7354 Y3.2730
G01 X54.5530 Y3.4922
G01 X55.2893 Y3.9180
G01 X55.8900 Y4.5187
G01 X56.3158 Y5.2566
G01 X56.5340 Y6.0726
G01 X56.5340 Y6.9264
G01 X56.3154 Y7.7437
G01 X55.8900 Y8.4803
G01 X55.2893 Y9.0810
G01 X54.5527 Y9.5064
G01 X53.7354 Y9.7250
G01 X52.8816 Y9.7250
G01 X52.0643 Y9.5064
G01 X51.3277 Y9.0810
G01 X50.7270 Y8.4803
G01 X50.3016 Y7.7437
G01 X50.0820 Y6.9264
G00 Z2.0000
M05
G00 Z2.0000
G00 Z5.00


