(G-CODE GENERATED BY FLATCAM v8.994 - www.flatcam.org - Version Date: 2020/11/7)

(Name: preprototiposecadosv3.drl_cnc)
(Type: G-code from Geometry)
(Units: MM)

(Created on Saturday, 02 September 2023 at 21:45)

(This preprocessor is the default preprocessor used by FlatCAM.)
(It is made to work with MACH3 compatible motion controllers.)


(TOOLS DIAMETER: )
(Tool: 1 -> Dia: 0.3)
(Tool: 2 -> Dia: 0.7)
(Tool: 3 -> Dia: 0.75)
(Tool: 4 -> Dia: 3.2)

(FEEDRATE Z: )
(Tool: 1 -> Feedrate: 100.0)
(Tool: 2 -> Feedrate: 100.0)
(Tool: 3 -> Feedrate: 100.0)
(Tool: 4 -> Feedrate: 100.0)

(FEEDRATE RAPIDS: )
(Tool: 1 -> Feedrate Rapids: 1500)
(Tool: 2 -> Feedrate Rapids: 1500)
(Tool: 3 -> Feedrate Rapids: 1500)
(Tool: 4 -> Feedrate Rapids: 1500)

(Z_CUT: )
(Tool: 1 -> Z_Cut: -4.0)
(Tool: 2 -> Z_Cut: -4.0)
(Tool: 3 -> Z_Cut: -4.0)
(Tool: 4 -> Z_Cut: -4.0)

(Tools Offset: )
(Tool: 1 -> Offset Z: 0.0)
(Tool: 2 -> Offset Z: 0.0)
(Tool: 3 -> Offset Z: 0.0)
(Tool: 4 -> Offset Z: 0.0)

(Z_MOVE: )
(Tool: 1 -> Z_Move: 2)
(Tool: 2 -> Z_Move: 2)
(Tool: 3 -> Z_Move: 2)
(Tool: 4 -> Z_Move: 2)

(Z Toolchange: 5.0 mm)
(X,Y Toolchange: 0.0000, 0.0000 mm)
(Z Start: None mm)
(Z End: 5.0 mm)
(X,Y End: None mm)
(Steps per circle: 64)
(Preprocessor Excellon: default)

(X range:    7.2010 ...   54.9080  mm)
(Y range:    3.8550 ...   57.1010  mm)

(Spindle Speed: 0 RPM)
G21
G90
G94

G01 F100.00

M5
G00 Z5.0000
T1
G00 X0.0000 Y0.0000                
M6
(MSG, Change to Tool Dia = 0.3000 ||| Total drills for tool T1 = 30)
M0
G00 Z5.0000

G01 F100.00
M03
G00 X15.3780 Y24.0060
G01 Z-4.0000
G01 Z0
G00 Z2.0000
G00 X15.1880 Y29.6890
G01 Z-4.0000
G01 Z0
G00 Z2.0000
G00 X17.1880 Y29.6890
G01 Z-4.0000
G01 Z0
G00 Z2.0000
G00 X19.1880 Y29.6890
G01 Z-4.0000
G01 Z0
G00 Z2.0000
G00 X21.1880 Y29.6890
G01 Z-4.0000
G01 Z0
G00 Z2.0000
G00 X17.5880 Y37.5910
G01 Z-4.0000
G01 Z0
G00 Z2.0000
G00 X9.5510 Y36.3950
G01 Z-4.0000
G01 Z0
G00 Z2.0000
G00 X7.5510 Y36.3950
G01 Z-4.0000
G01 Z0
G00 Z2.0000
G00 X14.7280 Y55.5010
G01 Z-4.0000
G01 Z0
G00 Z2.0000
G00 X30.6000 Y46.0000
G01 Z-4.0000
G01 Z0
G00 Z2.0000
G00 X53.3080 Y55.5010
G01 Z-4.0000
G01 Z0
G00 Z2.0000
G00 X45.6000 Y46.0000
G01 Z-4.0000
G01 Z0
G00 Z2.0000
G00 X46.7830 Y41.2220
G01 Z-4.0000
G01 Z0
G00 Z2.0000
G00 X45.0090 Y40.6310
G01 Z-4.0000
G01 Z0
G00 Z2.0000
G00 X45.6000 Y31.0000
G01 Z-4.0000
G01 Z0
G00 Z2.0000
G00 X42.1410 Y24.5740
G01 Z-4.0000
G01 Z0
G00 Z2.0000
G00 X37.0920 Y25.2690
G01 Z-4.0000
G01 Z0
G00 Z2.0000
G00 X34.5630 Y25.2400
G01 Z-4.0000
G01 Z0
G00 Z2.0000
G00 X32.5690 Y24.9370
G01 Z-4.0000
G01 Z0
G00 Z2.0000
G00 X27.3770 Y19.7440
G01 Z-4.0000
G01 Z0
G00 Z2.0000
G00 X41.1990 Y19.8460
G01 Z-4.0000
G01 Z0
G00 Z2.0000
G00 X42.5280 Y22.5010
G01 Z-4.0000
G01 Z0
G00 Z2.0000
G00 X53.3080 Y14.9220
G01 Z-4.0000
G01 Z0
G00 Z2.0000
G00 X46.1730 Y11.6540
G01 Z-4.0000
G01 Z0
G00 Z2.0000
G00 X38.8850 Y10.1370
G01 Z-4.0000
G01 Z0
G00 Z2.0000
G00 X33.3580 Y9.8380
G01 Z-4.0000
G01 Z0
G00 Z2.0000
G00 X30.3320 Y10.8330
G01 Z-4.0000
G01 Z0
G00 Z2.0000
G00 X27.2460 Y11.1010
G01 Z-4.0000
G01 Z0
G00 Z2.0000
G00 X14.7280 Y5.4550
G01 Z-4.0000
G01 Z0
G00 Z2.0000
G00 X15.6000 Y16.0000
G01 Z-4.0000
G01 Z0
G00 Z2.0000
M05
G00 Z5.00


